City,Latitude,Longitude,City,State,County,Zip
"Home Garden, California",33.878071,-117.520882,Home Gardens,CA,Riverside County,91720
"Home Gardens, California",33.878071,-117.520882,Home Gardens,CA,Riverside County,91720
"Homeland, California",33.74477,-117.1084,Homeland,CA,Riverside County,92548
"Homestead Valley, California",37.898949,-122.53669,Homestead Valley,CA,Marin County,94941
"Homewood Canyon, California",37.95669,-122.024962,Concord,CA,Contra Costa County,94518
"Honcut, California",39.593945,-121.581363,Honcut,CA,Butte County,95965
"Hood, California",38.36824,-121.51745,Hood,CA,Sacramento County,95639
"Hoopa, California",41.05041,-123.67422,Hoopa,CA,Humboldt County,95546
"Hopland, California",38.965637,-123.138986,Hopland,CA,Mendocino County,95449
"Hornbrook, California",41.939792,-122.525589,Hornbrook,CA,Siskiyou County,96044
"Hornitos, California",37.555242,-120.226091,Hornitos,CA,Mariposa County,95325
"Hughson, California",37.59688,-120.86604,Hughson,CA,Stanislaus County,95326
"Humboldt Hill, California",40.706655,-123.926176,,CA,Humboldt County,
"Huntington Beach, California",33.66205,-117.968459,Huntington Beach,CA,Orange County,92646
"Huntington Park, California",33.977987,-118.213137,Huntington Park,CA,Los Angeles County,90255
"Huron, California",36.207165,-120.103363,Huron,CA,Fresno County,93234
"Hyampom, California",40.613736,-123.448823,Hyampom,CA,Trinity County,96046
"Hydesville, California",40.548691,-124.09898,Hydesville,CA,Humboldt County,95547
"Hypericum, California",35.187133,-117.885359,California City,CA,Kern County,93504
"Idlewild, California",35.810785,-118.672033,Idlewild,CA,Tulare County,93260
"Idyllwild-Pine Cove, California",33.760576,-116.737796,Pine Cove,CA,Riverside County,92349
"Igo, California",40.478246,-122.722296,Igo,CA,Shasta County,96047
"Imperial, California",32.84755,-115.56944,Imperial,CA,Imperial County,92251
"Imperial Beach, California",32.578991,-117.117351,Imperial Beach,CA,San Diego County,91932
"Independence, California",36.831167,-118.235097,Independence,CA,Inyo County,93526
"Indian Falls, California",39.940174,-120.885878,Indian Falls,CA,Plumas County,95971
"Indianola, California",40.825486,-124.049485,Indianola,CA,Humboldt County,95524
"Indian Wells, California",33.71863,-116.30834,Indian Wells,CA,Riverside County,92210
"Indio, California",33.710984,-116.204844,Indio,CA,Riverside County,92201
"Indio Hills, California",33.710984,-116.204844,Indio,CA,Riverside County,92201
"Industry, California",34.019734,-117.958675,Industry,CA,Los Angeles County,91714
"Inglewood, California",33.956526,-118.358654,Inglewood,CA,Los Angeles County,90301
"Interlaken, California",35.187133,-117.885359,California City,CA,Kern County,93504
"Inverness, California",38.112571,-122.887717,Inverness,CA,Marin County,94937
"Inyokern, California",35.639715,-117.857026,Inyokern,CA,Kern County,93527
"Ione, California",38.340647,-120.91473,Ione,CA,Amador County,95640
"Iron Horse, California",40.084036,-123.658638,Harris,CA,Humboldt County,95440
"Irvine, California",33.757245,-117.750414,Irvine,CA,Orange County,92602
"Irwindale, California",34.106953,-117.935341,Irwindale,CA,Los Angeles County,91706
"Isla Vista, California",34.413329,-119.860972,Isla Vista,CA,Santa Barbara County,93117
"Isleton, California",38.16186,-121.61162,Isleton,CA,Sacramento County,95641
"Holtville, California",32.867317,-115.374769,Holtville,CA,Imperial County,92250
"Ivanhoe, California",36.38858,-119.22011,Ivanhoe,CA,Tulare County,93235
"Jackson, California",38.366959,-120.763365,Jackson,CA,Amador County,95642
"Jacumba, California",32.61756,-116.18974,Jacumba,CA,San Diego County,91934
"Jamestown, California",37.883131,-120.419802,Jamestown,CA,Tuolumne County,95327
"Jamul, California",32.71829,-116.87041,Jamul,CA,San Diego County,91935
"Janesville, California",40.298255,-120.506184,Janesville,CA,Lassen County,96114
"Jenner, California",38.44964,-123.11556,Jenner,CA,Sonoma County,95450
"Johannesburg, California",35.370839,-117.642748,Johannesburg,CA,Kern County,93528
"Johnson Park, California",40.91766,-121.627208,Johnson Park,CA,Shasta County,96013
"Johnstonville, California",35.187133,-117.885359,California City,CA,Kern County,93504
"Johnsville, California",39.76073,-120.695499,Johnsville,CA,Plumas County,96103
"Jones Valley, California",40.298255,-120.506184,Janesville,CA,Lassen County,96114
"Joshua Tree, California",34.175713,-116.268415,Joshua Tree,CA,San Bernardino County,92252
"Jovista, California",35.187133,-117.885359,California City,CA,Kern County,93504
"Washington, California",39.352343,-120.79118,Washington,CA,Nevada County,95986
"Waterford, California",37.659644,-120.775617,Waterford,CA,Stanislaus County,95386
"Waterloo, California",38.034644,-121.186889,Waterloo,CA,San Joaquin County,95201
"Watsonville, California",36.98025,-121.74696,Watsonville,CA,Santa Cruz County,95076
"Waukena, California",36.129557,-119.516076,Waukena,CA,Tulare County,93282
"Wautec, California",35.187133,-117.885359,California City,CA,Kern County,93504
"Wawona, California",37.53688,-119.656268,Wawona,CA,Mariposa County,95389
"Weaverville, California",40.704907,-122.956559,Weaverville,CA,Trinity County,96093
"Weed, California",41.42265,-122.38613,Weed,CA,Siskiyou County,96094
"Weedpatch, California",35.238017,-118.9151,Weed Patch,CA,Kern County,93241
"Weitchpec, California",41.188182,-123.708394,Weitchpec,CA,Humboldt County,95546
"Weldon, California",35.64309,-118.31017,Weldon,CA,Kern County,93283
"Weott, California",40.32181,-123.92171,Weott,CA,Humboldt County,95571
"West Athens, California",33.890853,-118.297967,West Athens,CA,Los Angeles County,90247
"West Bishop, California",37.491769,-118.389367,Bishop,CA,Mono County,93514
"West Carson, California",33.821684,-118.292572,West Carson,CA,Los Angeles County,90502
"West Covina, California",34.066964,-117.937007,West Covina,CA,Los Angeles County,91790
"West Goshen, California",36.357151,-119.425371,Goshen,CA,Tulare County,93227
"Westhaven-Moonstone, California",41.035958,-124.111179,Westhaven,CA,Humboldt County,95570
"West Hollywood, California",34.093828,-118.381697,West Hollywood,CA,Los Angeles County,90069
"Westlake Village, California",34.137015,-118.82193,Westlake Village,CA,Los Angeles County,91361
"Westley, California",37.561682,-121.249449,Westley,CA,Stanislaus County,95387
"West Menlo Park, California",37.43355,-122.203021,West Menlo Park,CA,San Mateo County,94025
"Westminster, California",33.75245,-117.993904,Westminster,CA,Orange County,92683
"West Modesto, California",37.623601,-120.996324,West Modesto,CA,Stanislaus County,95351
"Westmont, California",33.952724,-118.291904,Westmont,CA,Los Angeles County,90044
"Westmorland, California",33.037976,-115.591387,Westmorland,CA,Imperial County,92281
"West Park, California",39.660425,-123.786385,Westport,CA,Mendocino County,95488
"West Point, California",38.403007,-120.477467,West Point,CA,Calaveras County,95255
"West Puente Valley, California",38.403007,-120.477467,West Point,CA,Calaveras County,95255
"West Rancho Dominguez, California",33.874815,-118.240208,Rancho Dominguez,CA,Los Angeles County,90220
"West Sacramento, California",38.591854,-121.537801,West Sacramento,CA,Yolo County,95605
"Westside, California",35.187133,-117.885359,California City,CA,Kern County,93504
"West Whittier-Los Nietos, California",33.977272,-118.066363,West Whittier,CA,Los Angeles County,90606
"Westwood, California",40.303792,-121.022584,Westwood,CA,Lassen County,96137
"Wheatland, California",39.00989,-121.42301,Wheatland,CA,Yuba County,95692
"Whitehawk, California",35.187133,-117.885359,California City,CA,Kern County,93504
"Whitewater, California",33.945145,-116.649937,White Water,CA,Riverside County,92282
"Whitley Gardens, California",35.659137,-120.507661,Whitley Gardens,CA,San Luis Obispo County,93446
"Whitmore, California",40.575131,-121.86265,Whitmore,CA,Shasta County,96096
"Whittier, California",34.004311,-118.0441,Whittier,CA,Los Angeles County,90601
"Wildomar, California",33.59891,-117.28004,Wildomar,CA,Riverside County,92595
"Wilkerson, California",35.187133,-117.885359,California City,CA,Kern County,93504
"Williams, California",39.142737,-122.243739,Williams,CA,Colusa County,95987
"Williams Canyon, California",37.833901,-122.165034,Canyon,CA,Contra Costa County,94516
"Willits, California",39.525958,-123.36573,Willits,CA,Mendocino County,95490
"Willowbrook, California",33.91613,-118.23146,Willowbrook,CA,Los Angeles County,90222
"Willow Creek, California",40.87481,-123.65987,Willow Creek,CA,Humboldt County,95573
"Willows, California",39.519386,-122.292996,Willows,CA,Glenn County,95988
"Wilsonia, California",36.734947,-118.956496,Wilsonia,CA,Tulare County,93633
"Wilton, California",38.405222,-121.239026,Wilton,CA,Sacramento County,95693
"Winchester, California",33.71691,-117.07357,Winchester,CA,Riverside County,92596
"Windsor town, California",38.532827,-122.8041,Windsor,CA,Sonoma County,95492
"Winter Gardens, California",32.831161,-116.93336,Winter Gardens,CA,San Diego County,92040
"Winterhaven, California",32.981774,-114.685417,Winterhaven,CA,Imperial County,92283
"Winters, California",38.52491,-121.9708,Winters,CA,Yolo County,95694
"Julian, California",33.07347,-116.58901,Julian,CA,San Diego County,92036
"Junction City, California",40.741117,-123.071788,Junction City,CA,Trinity County,96048
"June Lake, California",37.78854,-119.07459,June Lake,CA,Mono County,93529
"Jurupa Valley, California",39.056598,-123.525375,Philo,CA,Mendocino County,95466
"Keddie, California",40.014891,-120.961066,Keddie,CA,Plumas County,95952
"Keeler, California",36.488612,-117.874104,Keeler,CA,Inyo County,93530
"Keene, California",35.226499,-118.581032,Keene,CA,Kern County,93531
"Kelly Ridge, California",39.754627,-120.595092,Clio,CA,Plumas County,96106
"Kelseyville, California",38.930811,-122.793699,Kelseyville,CA,Lake County,95451
"Kennedy, California",35.187133,-117.885359,California City,CA,Kern County,93504
"Kennedy Meadows, California",37.984549,-120.349264,Kennedy Meadow,CA,Tuolumne County,95370
"Kensington, California",37.898189,-122.27913,Kensington,CA,Alameda County,94707
"Kentfield, California",38.068036,-122.740988,Kentfield,CA,Marin County,94914
"Kenwood, California",38.413111,-122.548243,Kenwood,CA,Sonoma County,95452
"Kep'el, California",35.187133,-117.885359,California City,CA,Kern County,93504
"Kerman, California",36.72356,-120.05988,Kerman,CA,Fresno County,93630
"Kernville, California",35.708701,-118.405385,Kernville,CA,Kern County,93238
"Keswick, California",40.622372,-122.465845,Keswick,CA,Shasta County,96001
"Kettleman City, California",36.00899,-119.96254,Kettleman City,CA,Kings County,93239
"Keyes, California",37.55928,-120.913846,Keyes,CA,Stanislaus County,95328
"King City, California",36.201898,-121.05232,King City,CA,Monterey County,93930
"Kings Beach, California",39.24886,-120.0202,Kings Beach,CA,Placer County,96143
"Kingsburg, California",36.51384,-119.55402,Kingsburg,CA,Fresno County,93631
"Kingvale, California",39.319332,-120.399379,Kingvale,CA,Nevada County,95728
"Kirkwood, California",38.6926,-120.05238,Kirkwood,CA,Alpine County,95646
"Klamath, California",41.609872,-124.054355,Klamath,CA,Del Norte County,95548
"Knightsen, California",37.972622,-121.665205,Knightsen,CA,Contra Costa County,94548
"Knights Ferry, California",0,0,,,,
"Knights Landing, California",38.858483,-121.772472,Knights Landing,CA,Yolo County,95645
"La Ca√±ada Flintridge, California",34.222261,-118.205369,La Canada Flintridge,CA,Los Angeles County,91011
"La Crescenta-Montrose, California",34.213617,-118.227046,Montrose,CA,Los Angeles County,91020
"La Cresta, California",33.973951,-118.248405,Los Angeles,CA,Los Angeles County,90001
"Ladera, California",35.187133,-117.885359,California City,CA,Kern County,93504
"Ladera Heights, California",0,0,,,,
"Ladera Ranch, California",33.57086,-117.63561,Ladera Ranch,CA,Orange County,92694
"Lafayette, California",37.901223,-122.120089,Lafayette,CA,Contra Costa County,94549
"La Grange, California",37.66354,-120.46353,La Grange,CA,Stanislaus County,95329
"Laguna Beach, California",33.520941,-117.741315,Laguna Beach,CA,Orange County,92651
"Laguna Hills, California",33.595714,-117.715535,Laguna Hills,CA,Orange County,92653
"Laguna Niguel, California",33.640302,-117.769442,Laguna Niguel,CA,Orange County,92607
"Laguna Woods, California",33.591304,-117.697512,Laguna Woods,CA,Orange County,92653
"Lagunitas-Forest Knolls, California",37.960894,-122.562705,San Anselmo,CA,Marin County,94960
"La Habra, California",33.942708,-117.952483,LA Habra,CA,Orange County,90631
"La Habra Heights, California",33.942708,-117.952483,LA Habra,CA,Orange County,90631
"La Honda, California",37.272556,-122.249528,LA Honda,CA,San Mateo County,94020
"Lake Almanor Country Club, California",38.25047,-121.509397,Locke,CA,Sacramento County,95690
"Lake Almanor Peninsula, California",40.27322,-121.130518,Peninsula Village,CA,Plumas County,96137
"Lake Almanor West, California",33.058653,-115.448318,Wiest,CA,Imperial County,92227
"Lake Arrowhead, California",34.25883,-117.18763,Lake Arrowhead,CA,San Bernardino County,92352
"Lake California, California",35.187133,-117.885359,California City,CA,Kern County,93504
"Lake City, California",41.763674,-120.179132,Lake City,CA,Modoc County,96115
"Lake Davis, California",38.55413,-121.798469,Davis,CA,Yolo County,95616
"Lake Don Pedro, California",36.841665,-119.349639,Piedra,CA,Fresno County,93649
"Lake Elsinore, California",33.650799,-117.372457,Lake Elsinore,CA,Riverside County,92530
"Lake Forest, California",33.64079,-117.693074,Lake Forest,CA,Orange County,92630
"Lakehead, California",40.910481,-122.410576,Lakehead,CA,Shasta County,96051
"Wofford Heights, California",35.71306,-118.47274,Wofford Heights,CA,Kern County,93285
"Woodacre, California",38.00532,-122.63811,Woodacre,CA,Marin County,94973
"Woodbridge, California",38.157962,-121.314909,Woodbridge,CA,San Joaquin County,95258
"Woodcrest, California",33.882239,-117.357265,Woodcrest,CA,Riverside County,92504
"Woodlake, California",36.465943,-119.122283,Woodlake,CA,Tulare County,93286
"Woodland, California",38.74388,-121.915653,Woodland,CA,Yolo County,95695
"Woodlands, California",35.187133,-117.885359,California City,CA,Kern County,93504
"Woodside town, California",37.429939,-122.253856,Woodside,CA,San Mateo County,94062
"Woodville, California",35.988087,-118.860221,Woodville,CA,Tulare County,93257
"Woodville Farm Labor Camp, California",35.988087,-118.860221,Woodville,CA,Tulare County,93257
"Woody, California",35.70412,-118.83426,Woody,CA,Kern County,93287
"Wrightwood, California",34.35927,-117.63002,Wrightwood,CA,San Bernardino County,92397
"Yankee Hill, California",39.703496,-121.522192,Yankee Hill,CA,Butte County,95965
"Yermo, California",34.90498,-116.82031,Yermo,CA,San Bernardino County,92398
"Yettem, California",36.471833,-119.259352,Yettem,CA,Tulare County,93670
"Yolo, California",38.73185,-121.80774,Yolo,CA,Yolo County,95697
"Yorba Linda, California",33.640302,-117.769442,Yorba Linda,CA,Orange County,92885
"Yosemite Lakes, California",0,0,,,,
"Yosemite Valley, California",39.056598,-123.525375,Philo,CA,Mendocino County,95466
"Yosemite West, California",33.058653,-115.448318,Wiest,CA,Imperial County,92227
"Yountville, California",38.40158,-122.36081,Yountville,CA,Napa County,94599
"Yreka, California",41.73542,-122.63447,Yreka,CA,Siskiyou County,96097
"Yuba City, California",39.048854,-121.612481,Yuba City,CA,Sutter County,95991
"Yucaipa, California",34.06226,-116.971138,Yucaipa,CA,San Bernardino County,92399
"Yucca Valley town, California",34.185894,-116.432416,Yucca Valley,CA,San Bernardino County,92284
"Zayante, California",35.187133,-117.885359,California City,CA,Kern County,93504
"Winton, California",37.38593,-120.61792,Winton,CA,Merced County,95388
"Lake Hughes, California",34.67693,-118.44536,Lake Hughes,CA,Los Angeles County,93532
"Lake Isabella, California",35.668987,-118.457002,Lake Isabella,CA,Kern County,93240
"Lakeland Village, California",33.638633,-117.343929,Lakeland Village,CA,Riverside County,92330
"Lake Los Angeles, California",34.408383,-118.123597,Lake Los Angeles,CA,Los Angeles County,93550
"Lake Mathews, California",38.25047,-121.509397,Locke,CA,Sacramento County,95690
"Lake Nacimiento, California",38.25047,-121.509397,Locke,CA,Sacramento County,95690
"Lake of the Pines, California",38.25047,-121.509397,Locke,CA,Sacramento County,95690
"Lake of the Woods, California",34.817478,-118.996491,Lake of The Woods,CA,Kern County,93225
"Lakeport, California",39.05345,-122.919291,Lakeport,CA,Lake County,95453
"Lake Riverside, California",33.99504,-117.373184,Riverside,CA,Riverside County,92501
"Lake San Marcos, California",33.170778,-117.158674,San Marcos,CA,San Diego County,92069
"Lake Shastina, California",38.25047,-121.509397,Locke,CA,Sacramento County,95690
"Lake Sherwood, California",34.137015,-118.82193,Lake Sherwood,CA,Los Angeles County,91361
"Lakeside (Kern County), California",32.893498,-116.898945,Lakeside,CA,San Diego County,92040
"Lakeside (San Diego County), California",33.178342,-117.277055,Oceanside,CA,San Diego County,92056
"Lakeview, California",33.83863,-117.118087,Lakeview,CA,Riverside County,92353
"Lake Wildwood, California",40.400147,-123.05419,Wildwood,CA,Trinity County,96076
"Lakewood, California",33.845624,-118.14645,Lakewood,CA,Los Angeles County,90712
"La Mesa, California",32.76105,-116.998102,LA Mesa,CA,San Diego County,91941
"La Mirada, California",33.900863,-118.007297,La Mirada,CA,Los Angeles County,90638
"Lamont, California",35.26512,-118.91587,Lamont,CA,Kern County,93241
"Lanare, California",35.187133,-117.885359,California City,CA,Kern County,93504
"Lancaster, California",34.713292,-118.15292,Lancaster,CA,Los Angeles County,93534
"La Palma, California",33.8464,-118.04673,LA Palma,CA,Orange County,90623
"La Porte, California",33.973951,-118.248405,Los Angeles,CA,Los Angeles County,90001
"La Presa, California",33.973951,-118.248405,Los Angeles,CA,Los Angeles County,90001
"La Puente, California",34.031415,-117.93647,La Puente,CA,Los Angeles County,91744
"La Quinta, California",33.670978,-116.259176,La Quinta,CA,Riverside County,92253
"La Riviera, California",33.973951,-118.248405,Los Angeles,CA,Los Angeles County,90001
"Larkfield-Wikiup, California",0,0,,,,
"Larkspur, California",37.936624,-122.534237,Larkspur,CA,Marin County,94939
"La Selva Beach, California",33.973951,-118.248405,Los Angeles,CA,Los Angeles County,90001
"Las Flores (Orange County), California",33.554129,-117.722442,Aliso Viejo,CA,Orange County,92656
"Las Flores (Tehama County), California",40.0271,-122.12332,Tehama,CA,Tehama County,96090
"Las Lomas, California",36.865232,-121.734949,Las Lomas,CA,Monterey County,95076
"Lathrop, California",37.811976,-121.287362,Lathrop,CA,San Joaquin County,95330
"Laton, California",36.445649,-119.696386,Laton,CA,Fresno County,93242
"La Verne, California",34.10084,-117.76784,LA Verne,CA,Los Angeles County,91750
"La Vina, California",33.973951,-118.248405,Los Angeles,CA,Los Angeles County,90001
"Lawndale, California",33.88856,-118.351813,Lawndale,CA,Los Angeles County,90260
"Laytonville, California",39.6723,-123.49375,Laytonville,CA,Mendocino County,95454
"Lebec, California",34.881773,-118.856562,Lebec,CA,Kern County,93243
"Lee Vining, California",37.97823,-119.130361,Lee Vining,CA,Mono County,93541
"Leggett, California",39.873214,-123.721407,Leggett,CA,Mendocino County,95585
"Le Grand, California",37.264851,-120.231843,Le Grand,CA,Merced County,95333
"Lemon Cove, California",36.496901,-118.99412,Lemon Cove,CA,Tulare County,93244
"Lemon Grove, California",32.732288,-117.037344,Lemon Grove,CA,San Diego County,91945
"Lemon Hill, California",0,0,,,,
"Lemoore, California",36.268194,-119.817274,Lemoore,CA,Kings County,93245
"Lemoore Station, California",36.268194,-119.817274,Lemoore,CA,Kings County,93245
"Lennox, California",33.93807,-118.352575,Lennox,CA,Los Angeles County,90304
"Lenwood, California",34.87665,-117.103931,Lenwood,CA,San Bernardino County,92311
"Leona Valley, California",34.618321,-118.288133,Leona Valley,CA,Los Angeles County,93551
"Lewiston, California",40.736068,-122.837262,Lewiston,CA,Trinity County,96052
"Lexington Hills, California",0,0,,,,
"Likely, California",41.232908,-120.507888,Likely,CA,Modoc County,96116
"Lincoln, California",38.929305,-121.327143,Lincoln,CA,Placer County,95648
"Lincoln Village, California",38.929305,-121.327143,Lincoln,CA,Placer County,95648
"Linda, California",39.12767,-121.550798,Linda,CA,Yuba County,95901
"Lindcove, California",36.357727,-119.064549,Lind Cove,CA,Tulare County,93221
"Linden, California",38.017322,-121.039852,Linden,CA,San Joaquin County,95236
"Lindsay, California",36.20301,-119.08816,Lindsay,CA,Tulare County,93247
"Linnell Camp, California",32.62611,-116.46833,Campo,CA,San Diego County,91906
"Litchfield, California",40.407309,-120.40921,Litchfield,CA,Lassen County,96117
"Little Grass Valley, California",39.185768,-121.059127,Grass Valley,CA,Nevada County,95949
"Little River, California",39.267235,-123.696392,Littleriver,CA,Mendocino County,95456
"Littlerock, California",34.52279,-117.98732,Littlerock,CA,Los Angeles County,93543
"Little Valley, California",40.894332,-121.177471,Little Valley,CA,Lassen County,96053
"Live Oak, California",39.236141,-121.767177,Live Oak,CA,Sutter County,95953
"Live Oak, California",39.236141,-121.767177,Live Oak,CA,Sutter County,95953
"Livermore, California",37.526661,-121.583391,Livermore,CA,Alameda County,94550
"Livingston, California",37.358769,-120.750082,Livingston,CA,Merced County,95334
"Lockeford, California",38.15084,-121.15544,Lockeford,CA,San Joaquin County,95237
"Lockwood (Amador County), California",35.949963,-121.062554,Lockwood,CA,Monterey County,93932
"Lockwood (Monterey County), California",35.944161,-121.079431,Lockwood,CA,Monterey County,93932
"Lodi, California",38.111356,-121.172415,Lodi,CA,San Joaquin County,95240
"Lodoga, California",39.301831,-122.489152,Lodoga,CA,Colusa County,95979
"Loleta, California",40.665179,-124.239192,Loleta,CA,Humboldt County,95551
"Loma Linda, California",34.839964,-115.967051,Loma Linda,CA,San Bernardino County,92350
"Loma Mar, California",37.27105,-122.30858,Loma Mar,CA,San Mateo County,94021
"Loma Rica, California",39.311835,-121.417742,Loma Rica,CA,Yuba County,95901
"Lomita, California",33.79224,-118.31507,Lomita,CA,Los Angeles County,90717
"Lompico, California",37.105503,-122.05274,Lompico,CA,Santa Cruz County,95018
"Lompoc, California",34.629464,-120.336594,Lompoc,CA,Santa Barbara County,93436
"London, California",36.476062,-119.443179,London,CA,Tulare County,93618
"Lone Pine, California",36.57696,-118.07813,Lone Pine,CA,Inyo County,93545
"Long Barn, California",38.112838,-120.126643,Long Barn,CA,Tuolumne County,95335
"Long Beach, California",33.756024,-118.201101,Long Beach,CA,Los Angeles County,90802
"Lookout, California",41.234693,-121.215582,Lookout,CA,Modoc County,96054
"Loomis town, California",38.814428,-121.176622,Loomis,CA,Placer County,95650
"Los Alamitos, California",33.795012,-118.062692,Los Alamitos,CA,Orange County,90720
"Los Alamos, California",34.745715,-120.204944,Los Alamos,CA,Santa Barbara County,93440
"Los Altos, California",37.357472,-122.144416,Los Altos,CA,Santa Clara County,94022
"Los Altos Hills town, California",37.357472,-122.144416,Los Altos,CA,Santa Clara County,94022
"Los Angeles, California",33.973951,-118.248405,Los Angeles,CA,Los Angeles County,90001
"Los Banos, California",37.103768,-120.847479,Los Banos,CA,Merced County,93635
"Los Berros, California",35.078865,-120.542668,Los Berros,CA,San Luis Obispo County,93420
"Los Gatos town, California",37.222788,-121.983274,Los Gatos,CA,Santa Clara County,95030
"Los Molinos, California",40.0268,-122.09805,Los Molinos,CA,Tehama County,96055
"Los Olivos, California",34.66776,-120.11487,Los Olivos,CA,Santa Barbara County,93441
"Los Osos, California",35.301041,-120.794897,Los Osos,CA,San Luis Obispo County,93402
"Los Ranchos, California",37.155177,-119.543418,,CA,,
"Lost Hills, California",35.6254,-119.67885,Lost Hills,CA,Kern County,93249
"Lower Lake, California",38.89699,-122.625621,Lower Lake,CA,Lake County,95457
"Loyalton, California",39.613008,-120.285676,Loyalton,CA,Sierra County,96118
"Loyola, California",37.357472,-122.144416,Loyola,CA,Santa Clara County,94022
"Lucas Valley-Marinwood, California",38.036548,-122.591908,San Rafael,CA,Marin County,94903
"Lucerne, California",39.09017,-122.79638,Lucerne,CA,Lake County,95458
"Lucerne Valley, California",34.50333,-116.92226,Lucerne Valley,CA,San Bernardino County,92356
"Lynwood, California",33.924538,-118.202954,Lynwood,CA,Los Angeles County,90262
"Lytle Creek, California",34.25917,-117.50005,Lytle Creek,CA,San Bernardino County,92358
"Mabie, California",35.187133,-117.885359,California City,CA,Kern County,93504
"Acalanes Ridge, California",0,0,,,,
"Acampo, California",38.198666,-121.230207,Acampo,CA,San Joaquin County,95220
"Acton, California",34.48319,-118.18583,Acton,CA,Los Angeles County,93510
"Adelanto, California",34.58277,-117.40922,Adelanto,CA,San Bernardino County,92301
"Adin, California",41.236677,-120.932949,Adin,CA,Modoc County,96006
"Agoura Hills, California",34.123286,-118.758541,Agoura Hills,CA,Los Angeles County,91301
"Agua Dulce, California",0,0,,,,
"Aguanga, California",33.519176,-116.802625,Aguanga,CA,Riverside County,92536
"Ahwahnee, California",37.379045,-119.736326,Ahwahnee,CA,Madera County,93601
"Airport, California",35.187133,-117.885359,California City,CA,Kern County,93504
"Alameda, California",37.770563,-122.264779,Alameda,CA,Alameda County,94501
"Alamo, California",37.85638,-122.0038,Alamo,CA,Contra Costa County,94507
"Albany, California",37.889525,-122.29828,Albany,CA,Alameda County,94706
"Albion, California",39.22351,-123.76863,Albion,CA,Mendocino County,95410
"Alderpoint, California",40.13049,-123.602161,Alderpoint,CA,Humboldt County,95511
"Alhambra, California",34.090728,-118.127527,Alhambra,CA,Los Angeles County,91801
"Alhambra Valley, California",34.090728,-118.127527,Alhambra,CA,Los Angeles County,91801
"Aliso Viejo, California",33.576205,-117.730364,Aliso Viejo,CA,Orange County,92656
"McArthur, California",41.028176,-121.308316,McArthur,CA,Lassen County,96056
"McClellan Park, California",0,0,,,,
"McClenney Tract, California",0,0,,,,
"McCloud, California",41.247548,-122.112813,McCloud,CA,Siskiyou County,96057
"Macdoel, California",41.787881,-121.911394,Macdoel,CA,Siskiyou County,96058
"McFarland, California",35.67801,-119.22927,Mc Farland,CA,Kern County,93250
"McGee Creek, California",0,0,,,,
"McKinleyville, California",40.959368,-124.051236,McKinleyville,CA,Humboldt County,95519
"McKittrick, California",35.187133,-117.885359,California City,CA,Kern County,93504
"McSwain, California",35.187133,-117.885359,California City,CA,Kern County,93504
"Madeline, California",40.97664,-120.554754,Madeline,CA,Lassen County,96119
"Madera, California",36.928286,-120.182423,Madera,CA,Madera County,93637
"Madera Acres, California",36.928286,-120.182423,Madera,CA,Madera County,93637
"Madera Ranchos, California",36.928286,-120.182423,Madera,CA,Madera County,93637
"Madison, California",38.67935,-121.9683,Madison,CA,Yolo County,95653
"Mad River, California",40.450929,-123.505623,Mad River,CA,Trinity County,95552
"Magalia, California",39.867959,-121.599628,Magalia,CA,Butte County,95954
"Malaga, California",36.683561,-119.733751,Malaga,CA,Fresno County,93725
"Malibu, California",34.039034,-118.707992,Malibu,CA,Los Angeles County,90263
"Mammoth Lakes town, California",37.609434,-118.865636,Mammoth Lakes,CA,Mono County,93546
"Manchester, California",38.950236,-123.661507,Manchester,CA,Mendocino County,95459
"Manhattan Beach, California",33.889151,-118.402127,Manhattan Beach,CA,Los Angeles County,90266
"Manila, California",40.851793,-124.162286,Manila,CA,Humboldt County,95521
"Manteca, California",37.807297,-121.177601,Manteca,CA,San Joaquin County,95336
"Manton, California",40.420879,-121.864689,Manton,CA,Tehama County,96059
"March ARB, California",0,0,,,,
"Maricopa, California",35.05886,-119.40095,Maricopa,CA,Kern County,93252
"Marina, California",36.6844,-121.80217,Marina,CA,Monterey County,93933
"Marina del Rey, California",33.979007,-118.457852,Marina Del Rey,CA,Los Angeles County,90292
"Marin City, California",36.6844,-121.80217,Marina,CA,Monterey County,93933
"Mariposa, California",37.572907,-120.018973,Mariposa,CA,Mariposa County,95338
"Markleeville, California",38.771319,-119.832669,Markleeville,CA,Alpine County,96120
"Martell, California",38.463282,-120.550021,Martell,CA,Amador County,95654
"Martinez, California",37.986421,-122.134976,Martinez,CA,Contra Costa County,94553
"Marysville, California",39.14573,-121.59135,Marysville,CA,Yuba County,95901
"Matheny, California",35.187133,-117.885359,California City,CA,Kern County,93504
"Mather, California",38.554406,-121.28181,Mather,CA,Sacramento County,95655
"Maxwell, California",39.2847,-122.210089,Maxwell,CA,Colusa County,95955
"Mayfair, California",35.187133,-117.885359,California City,CA,Kern County,93504
"Mayflower Village, California",0,0,,,,
"Maywood, California",33.988463,-118.187376,Maywood,CA,Los Angeles County,90270
"Meadowbrook, California",35.187133,-117.885359,California City,CA,Kern County,93504
"Meadow Valley, California",39.896259,-121.096023,Meadow Valley,CA,Plumas County,95956
"Meadow Vista, California",39.001448,-121.034843,Meadow Vista,CA,Placer County,95722
"Mead Valley, California",39.056598,-123.525375,Philo,CA,Mendocino County,95466
"Mecca, California",33.545034,-116.018731,Mecca,CA,Riverside County,92254
"Meiners Oaks, California",34.446938,-119.27928,Meiners Oaks,CA,Ventura County,93023
"Mendocino, California",39.319949,-123.734377,Mendocino,CA,Mendocino County,95460
"Mendota, California",36.75356,-120.38156,Mendota,CA,Fresno County,93640
"Menifee, California",33.658592,-117.173618,Menifee,CA,Riverside County,92584
"Menlo Park, California",37.439616,-122.186373,Menlo Park,CA,San Mateo County,94025
"Mentone, California",34.07001,-117.13448,Mentone,CA,San Bernardino County,92359
"Merced, California",37.345785,-120.42415,Merced,CA,Merced County,95340
"Meridian, California",39.14323,-121.91442,Meridian,CA,Sutter County,95957
"Mesa, California",35.187133,-117.885359,California City,CA,Kern County,93504
"Mesa Verde, California",39.58988,-122.449991,Fruto,CA,Glenn County,95988
"Mesa Vista, California",33.208665,-117.33168,Oceanside,CA,San Diego County,92054
"Alleghany, California",39.466324,-120.829633,Alleghany,CA,Sierra County,95910
"Allendale, California",0,0,,,,
"Allensworth, California",35.187133,-117.885359,California City,CA,Kern County,93504
"Almanor, California",35.187133,-117.885359,California City,CA,Kern County,93504
"Alondra Park, California",0,0,,,,
"Alpaugh, California",35.88777,-119.4872,Alpaugh,CA,Tulare County,93201
"Alpine, California",32.810624,-116.710667,Alpine,CA,San Diego County,91901
"Alpine Village, California",32.810624,-116.710667,Alpine,CA,San Diego County,91901
"Alta, California",39.214162,-120.795987,Alta,CA,Placer County,95701
"Altadena, California",34.195275,-118.137227,Altadena,CA,Los Angeles County,91001
"Alta Sierra (Kern County), California",39.214162,-120.795987,Alta,CA,Placer County,95701
"Alta Sierra (Nevada County), California",39.214162,-120.795987,Alta,CA,Placer County,95701
"Alto, California",37.90437,-122.525531,Alto,CA,Marin County,94941
"Alturas, California",41.433984,-120.640865,Alturas,CA,Modoc County,96101
"Alum Rock, California",41.73542,-122.63447,Yreka,CA,Siskiyou County,96097
"Amador City, California",38.41936,-120.8241,Amador City,CA,Amador County,95601
"Amador Pines, California",0,0,,,,
"American Canyon, California",38.17727,-122.258529,American Canyon,CA,Napa County,94503
"Amesti, California",35.187133,-117.885359,California City,CA,Kern County,93504
"Anaheim, California",33.844983,-117.952151,Anaheim,CA,Orange County,92801
"Anchor Bay, California",0,0,,,,
"Anderson, California",40.469324,-122.278404,Anderson,CA,Shasta County,96007
"Angels, California",35.187133,-117.885359,California City,CA,Kern County,93504
"Angwin, California",38.57145,-122.450215,Angwin,CA,Napa County,94508
"Antelope, California",38.716091,-121.366613,Antelope,CA,Sacramento County,95843
"Antioch, California",37.996501,-121.812301,Antioch,CA,Contra Costa County,94509
"Anza, California",33.524988,-116.679174,Anza,CA,Riverside County,92539
"Apple Valley town, California",34.571446,-117.133076,Apple Valley,CA,San Bernardino County,92307
"Aptos, California",37.05297,-121.949418,Aptos,CA,Santa Cruz County,95001
"Aptos Hills-Larkin Valley, California",37.05297,-121.949418,Aptos,CA,Santa Cruz County,95001
"Arbuckle, California",39.0134,-121.996852,Arbuckle,CA,Colusa County,95912
"Arcadia, California",34.136258,-118.026704,Arcadia,CA,Los Angeles County,91006
"Arcata, California",40.881383,-123.984232,Arcata,CA,Humboldt County,95518
"Arden-Arcade, California",34.136258,-118.026704,Arcadia,CA,Los Angeles County,91006
"Armona, California",36.31578,-119.70846,Armona,CA,Kings County,93202
"Arnold, California",38.328969,-120.223837,Arnold,CA,Calaveras County,95223
"Aromas, California",36.864154,-121.647608,Aromas,CA,Monterey County,95004
"Arroyo Grande, California",35.176005,-120.476742,Arroyo Grande,CA,San Luis Obispo County,93420
"Artesia, California",33.865395,-118.073148,Artesia,CA,Los Angeles County,90701
"Artois, California",39.698298,-122.168928,Artois,CA,Glenn County,95913
"Arvin, California",35.20913,-118.82843,Arvin,CA,Kern County,93203
"Ashland, California",0,0,,,,
"Aspen Springs, California",32.718352,-117.000109,Spring Valley,CA,San Diego County,91977
"Atascadero, California",35.464793,-120.712459,Atascadero,CA,San Luis Obispo County,93422
"Atherton town, California",37.450627,-122.199439,Atherton,CA,San Mateo County,94027
"Atwater, California",37.317255,-120.647347,Atwater,CA,Merced County,95301
"Auberry, California",37.07545,-119.49005,Auberry,CA,Fresno County,93602
"Auburn, California",39.014933,-121.07047,Auburn,CA,Nevada County,95602
"Auburn Lake Trails, California",39.014933,-121.07047,Auburn,CA,Nevada County,95602
"August, California",0,0,,,,
"Avalon, California",33.34281,-118.32785,Avalon,CA,Los Angeles County,90704
"Avenal, California",36.003134,-120.128716,Avenal,CA,Kings County,93204
"Avery, California",38.217249,-120.377348,Avery,CA,Calaveras County,95224
"Avila Beach, California",35.17998,-120.73184,Avila Beach,CA,San Luis Obispo County,93424
"Avocado Heights, California",37.155177,-119.543418,,CA,,
"Azusa, California",34.13529,-117.91506,Azusa,CA,Los Angeles County,91702
"Mettler, California",35.384337,-119.020562,Mettler,CA,Kern County,93301
"Mexican Colony, California",35.468848,-119.268721,Mexican Colony,CA,Kern County,93263
"Meyers, California",35.187133,-117.885359,California City,CA,Kern County,93504
"Middletown, California",38.75565,-122.62835,Middletown,CA,Lake County,95461
"Midpines, California",37.564369,-119.962569,Midpines,CA,Mariposa County,95345
"Midway City, California",33.745101,-117.984872,Midway City,CA,Orange County,92655
"Milford, California",40.17129,-120.37244,Milford,CA,Lassen County,96121
"Millbrae, California",37.598385,-122.400083,Millbrae,CA,San Mateo County,94030
"Millerton, California",35.187133,-117.885359,California City,CA,Kern County,93504
"Mill Valley, California",37.886325,-122.562937,Mill Valley,CA,Marin County,94941
"Millville, California",40.570081,-122.067214,Millville,CA,Shasta County,96062
"Milpitas, California",37.436454,-121.861989,Milpitas,CA,Santa Clara County,95035
"Mineral, California",40.356403,-121.57102,Mineral,CA,Tehama County,96063
"Minkler, California",36.723839,-119.458183,Minkler,CA,Fresno County,93657
"Mira Monte, California",34.433606,-119.285113,Mira Monte,CA,Ventura County,93023
"Miranda, California",40.23548,-123.845935,Miranda,CA,Humboldt County,95553
"Mission Canyon, California",37.833901,-122.165034,Canyon,CA,Contra Costa County,94516
"Mission Hills, California",34.265878,-118.457241,Mission Hills,CA,Los Angeles County,91345
"Mission Viejo, California",33.605527,-117.667923,Mission Viejo,CA,Orange County,92691
"Mi-Wuk Village, California",38.05921,-120.17805,MI Wuk Village,CA,Tuolumne County,95346
"Modesto, California",37.669463,-121.016796,Modesto,CA,Stanislaus County,95350
"Modjeska, California",33.709186,-117.62616,Modjeska,CA,Orange County,92667
"Mohawk Vista, California",32.769637,-117.046092,San Diego,CA,San Diego County,92115
"Mojave, California",35.038066,-118.31596,Mojave,CA,Kern County,93501
"Mokelumne Hill, California",38.29138,-120.571875,Mokelumne Hill,CA,Calaveras County,95245
"Monmouth, California",36.566061,-119.740138,Monmouth,CA,Fresno County,93725
"Mono City, California",0,0,,,,
"Mono Vista, California",33.19784,-117.248203,Vista,CA,San Diego County,92083
"Monrovia, California",34.1528,-118.000482,Monrovia,CA,Los Angeles County,91016
"Monson, California",36.492173,-119.336507,Monson,CA,Tulare County,93618
"Montague, California",41.757491,-122.196783,Montague,CA,Siskiyou County,96064
"Montalvin Manor, California",34.253893,-119.20372,Montalvo,CA,Ventura County,93005
"Montara, California",37.542789,-122.505152,Montara,CA,San Mateo County,94037
"Montclair, California",34.07751,-117.68978,Montclair,CA,San Bernardino County,91763
"Montebello, California",34.00946,-118.10535,Montebello,CA,Los Angeles County,90640
"Montecito, California",35.187133,-117.885359,California City,CA,Kern County,93504
"Monterey, California",36.57485,-121.840727,Monterey,CA,Monterey County,93940
"Monterey Park, California",34.052922,-118.143465,Monterey Park,CA,Los Angeles County,91754
"Monterey Park Tract, California",34.052922,-118.143465,Monterey Park,CA,Los Angeles County,91754
"Monte Rio, California",38.46713,-123.01364,Monte Rio,CA,Sonoma County,95462
"Monte Sereno, California",37.236333,-121.992458,Monte Sereno,CA,Santa Clara County,95030
"Montgomery Creek, California",40.900945,-121.916728,Montgomery Creek,CA,Shasta County,96065
"Monument Hills, California",0,0,,,,
"Moorpark, California",34.285558,-118.882041,Moorpark,CA,Ventura County,93020
"Morada, California",37.964578,-121.259841,Morada,CA,San Joaquin County,95205
"Moraga town, California",37.838926,-122.099224,Moraga,CA,Contra Costa County,94556
"Moreno Valley, California",33.88274,-117.224878,Moreno Valley,CA,Riverside County,92551
"Morgan Hill, California",37.130238,-121.681557,Morgan Hill,CA,Santa Clara County,95037
"Morongo Valley, California",34.05855,-116.59312,Morongo Valley,CA,San Bernardino County,92256
"Morro Bay, California",35.402295,-120.793742,Morro Bay,CA,San Luis Obispo County,93442
"Moskowite Corner, California",0,0,,,,
"Moss Beach, California",37.52904,-122.51127,Moss Beach,CA,San Mateo County,94038
"Moss Landing, California",36.797555,-121.76066,Moss Landing,CA,Monterey County,95039
"Mountain Center, California",33.70419,-116.72585,Mountain Center,CA,Riverside County,92561
"Mountain Gate, California",40.600342,-122.455016,Mountain Gate,CA,Shasta County,96001
"Mountain House, California",34.07001,-117.13448,Mentone,CA,San Bernardino County,92359
"Baker, California",35.26498,-116.07446,Baker,CA,San Bernardino County,92309
"Bakersfield, California",35.384337,-119.020562,Bakersfield,CA,Kern County,93301
"Bakersfield Country Club, California",35.384337,-119.020562,Bakersfield,CA,Kern County,93301
"Baldwin Park, California",34.08529,-117.9609,Baldwin Park,CA,Los Angeles County,91706
"Ballard, California",35.74837,-117.384948,Ballarat,CA,San Bernardino County,93562
"Ballico, California",37.45438,-120.70603,Ballico,CA,Merced County,95303
"Bangor, California",39.3885,-121.40524,Bangor,CA,Butte County,95914
"Banning, California",33.919215,-116.864197,Banning,CA,Riverside County,92220
"Barstow, California",34.980295,-116.964449,Barstow,CA,San Bernardino County,92311
"Bass Lake, California",37.32467,-119.56625,Bass Lake,CA,Madera County,93604
"Bay Point, California",40.467923,-123.168637,Peanut,CA,Trinity County,96041
"Bayview (Contra Costa County), California",37.991835,-121.701272,Oakley,CA,Contra Costa County,94561
"Bayview (Humboldt County), California",40.869324,-124.075312,Arcata,CA,Humboldt County,95521
"Baywood Park, California",0,0,,,,
"Beale AFB, California",39.111453,-121.360957,Beale AFB,CA,Yuba County,95903
"Bear Creek, California",39.653813,-121.383744,Berry Creek,CA,Butte County,95916
"Bear Valley (Alpine County), California",33.181769,-116.956642,Escondido,CA,San Diego County,92027
"Bear Valley (Mariposa County), California",37.547443,-120.185139,Hornitos,CA,Mariposa County,95325
"Bear Valley Springs, California",38.18371,-120.81502,Valley Springs,CA,Calaveras County,95252
"Beaumont, California",33.92703,-116.954753,Beaumont,CA,Riverside County,92223
"Beckwourth, California",39.772064,-120.405095,Beckwourth,CA,Plumas County,96129
"Belden, California",40.00794,-121.2382,Belden,CA,Plumas County,95915
"Bell, California",33.976663,-118.168903,Bell,CA,Los Angeles County,90201
"Bella Vista, California",40.715565,-122.11939,Bella Vista,CA,Shasta County,96008
"Bell Canyon, California",38.006531,-121.896289,Pittsburg,CA,Contra Costa County,94565
"Bellflower, California",33.888014,-118.12965,Bellflower,CA,Los Angeles County,90706
"Bell Gardens, California",33.786594,-118.298662,Bell Gardens,CA,Los Angeles County,90202
"Belmont, California",37.516644,-122.29339,Belmont,CA,San Mateo County,94002
"Belvedere, California",34.040568,-118.169238,Belvedere,CA,Los Angeles County,90022
"Benbow, California",40.068479,-123.784472,Benbow,CA,Humboldt County,95440
"Bend, California",35.187133,-117.885359,California City,CA,Kern County,93504
"Benicia, California",38.04936,-122.15858,Benicia,CA,Solano County,94510
"Ben Lomond, California",37.096297,-122.095525,Ben Lomond,CA,Santa Cruz County,95005
"Benton, California",37.8191,-118.47651,Benton,CA,Mono County,93512
"Benton Park, California",37.8191,-118.47651,Benton,CA,Mono County,93512
"Berkeley, California",37.864425,-122.28713,Berkeley,CA,Alameda County,94702
"Bermuda Dunes, California",0,0,,,,
"Berry Creek, California",39.653813,-121.383744,Berry Creek,CA,Butte County,95916
"Bertsch-Oceanview, California",0,0,,,,
"Bethel Island, California",38.02662,-121.642463,Bethel Island,CA,Contra Costa County,94511
"Beverly Hills, California",34.10263,-118.415972,Beverly Hills,CA,Los Angeles County,90210
"Bieber, California",41.131506,-121.128616,Bieber,CA,Lassen County,96009
"Big Bear City, California",34.26682,-116.84591,Big Bear City,CA,San Bernardino County,92314
"Big Bear Lake, California",34.2439,-116.91142,Big Bear Lake,CA,San Bernardino County,92315
"Big Bend, California",40.974917,-121.82502,Big Bend,CA,Shasta County,96011
"Big Creek, California",37.20495,-119.24596,Big Creek,CA,Fresno County,93605
"Biggs, California",39.40672,-121.753522,Biggs,CA,Butte County,95917
"Big Lagoon, California",0,0,,,,
"Big Pine, California",37.169602,-118.294915,Big Pine,CA,Inyo County,93513
"Big River, California",0,0,,,,
"Biola, California",36.80217,-120.01627,Biola,CA,Fresno County,93606
"Bishop, California",37.491769,-118.389367,Bishop,CA,Mono County,93514
"Blackhawk, California",0,0,,,,
"Blacklake, California",35.187133,-117.885359,California City,CA,Kern County,93504
"Black Point-Green Point, California",33.752886,-116.055617,Corona,CA,Riverside County,91719
"Blairsden, California",39.78101,-120.616608,Blairsden-Graeagle,CA,Plumas County,96103
"Mountain Meadows, California",34.07001,-117.13448,Mentone,CA,San Bernardino County,92359
"Mountain Mesa, California",35.639398,-118.405639,Mountain Mesa,CA,Kern County,93240
"Mountain Ranch, California",38.25085,-120.51189,Mountain Ranch,CA,Calaveras County,95246
"Mountain View, California",37.189396,-121.705327,Mountain View,CA,Santa Clara County,94039
"Mountain View, California",37.189396,-121.705327,Mountain View,CA,Santa Clara County,94039
"Mountain View Acres, California",37.189396,-121.705327,Mountain View,CA,Santa Clara County,94039
"Mt. Bullion, California",37.507159,-120.0449,Mount Bullion,CA,Mariposa County,95338
"Mount Hebron, California",41.787094,-122.004174,Mount Hebron,CA,Siskiyou County,96066
"Mount Hermon, California",37.052137,-122.058024,Mount Hermon,CA,Santa Cruz County,95041
"Mount Laguna, California",32.87227,-116.41835,Mount Laguna,CA,San Diego County,91948
"Mount Shasta, California",41.31583,-122.31611,Mount Shasta,CA,Siskiyou County,96067
"Muir Beach, California",37.862149,-122.581367,Muir Beach,CA,Marin County,94965
"Murphys, California",38.131035,-120.454381,Murphys,CA,Calaveras County,95247
"Murrieta, California",33.548299,-117.344739,Murrieta,CA,Riverside County,92562
"Muscoy, California",35.187133,-117.885359,California City,CA,Kern County,93504
"Myers Flat, California",40.262278,-123.81444,Myers Flat,CA,Humboldt County,95554
"Myrtletown, California",40.788739,-124.130338,Myrtletown,CA,Humboldt County,95501
"Napa, California",38.442011,-122.23832,Napa,CA,Napa County,94558
"National City, California",32.671194,-117.084353,National City,CA,San Diego County,91950
"Needles, California",34.84806,-114.61413,Needles,CA,San Bernardino County,92363
"Nevada City, California",39.299606,-120.887965,Nevada City,CA,Nevada County,95959
"Newark, California",37.534102,-122.025352,Newark,CA,Alameda County,94560
"Newcastle, California",38.87407,-121.13328,Newcastle,CA,Placer County,95658
"New Cuyama, California",34.922283,-119.590275,New Cuyama,CA,Santa Barbara County,93254
"Newell, California",35.187133,-117.885359,California City,CA,Kern County,93504
"Newman, California",37.340337,-121.213529,Newman,CA,Stanislaus County,95360
"New Pine Creek, California",41.992665,-120.297178,New Pine Creek,CA,Modoc County,97635
"Newport Beach, California",33.640302,-117.769442,Newport Beach,CA,Orange County,92658
"Nicasio, California",38.06159,-122.6986,Nicasio,CA,Marin County,94946
"Nice, California",39.12483,-122.85182,Nice,CA,Lake County,95464
"Nicolaus, California",38.90323,-121.57774,Nicolaus,CA,Sutter County,95659
"Niland, California",33.23878,-115.51457,Niland,CA,Imperial County,92257
"Nipinnawasee, California",37.404108,-119.732935,Nipinnawasee,CA,Madera County,93601
"Nipomo, California",35.048397,-120.494812,Nipomo,CA,San Luis Obispo County,93444
"Norco, California",33.752886,-116.055617,Norco,CA,Riverside County,91760
"Nord, California",39.745628,-121.843834,Nord,CA,Butte County,95926
"Norris Canyon, California",37.76882,-121.980871,San Ramon,CA,Contra Costa County,94583
"North Auburn, California",39.014933,-121.07047,Auburn,CA,Nevada County,95602
"North Edwards, California",35.016641,-117.832843,North Edwards,CA,Kern County,93523
"North El Monte, California",34.078573,-118.043456,El Monte,CA,Los Angeles County,91731
"North Fair Oaks, California",37.2141,-119.496955,North Fork,CA,Madera County,93643
"North Fork, California",37.2141,-119.496955,North Fork,CA,Madera County,93643
"North Gate, California",0,0,,,,
"North Highlands, California",38.66855,-121.3813,North Highlands,CA,Sacramento County,95660
"North Lakeport, California",39.05345,-122.919291,Lakeport,CA,Lake County,95453
"North Richmond, California",37.947523,-122.384032,Richmond,CA,Contra Costa County,94801
"North San Juan, California",39.36934,-121.10384,North San Juan,CA,Nevada County,95960
"North Shore, California",0,0,,,,
"North Tustin, California",33.73401,-117.819157,Tustin,CA,Orange County,92780
"Norwalk, California",33.906763,-118.076549,Norwalk,CA,Los Angeles County,90650
"Novato, California",38.134068,-122.52719,Novato,CA,Marin County,94945
"Nubieber, California",41.09572,-121.18303,Nubieber,CA,Lassen County,96068
"Nuevo, California",33.80644,-117.13731,Nuevo,CA,Riverside County,92567
"Oakdale, California",37.839643,-120.698578,Oakdale,CA,Stanislaus County,95361
"Oak Glen, California",34.049457,-116.947805,Oak Glen,CA,San Bernardino County,92399
"Oak Hills, California",34.374627,-117.300435,Oak Hills,CA,San Bernardino County,92345
"Bloomfield, California",35.187133,-117.885359,California City,CA,Kern County,93504
"Bloomington, California",34.06042,-117.40145,Bloomington,CA,San Bernardino County,92316
"Blue Lake, California",40.961876,-123.88501,Blue Lake,CA,Humboldt County,95525
"Bluewater, California",35.187133,-117.885359,California City,CA,Kern County,93504
"Blythe, California",33.736458,-114.687973,Blythe,CA,Riverside County,92225
"Bodega, California",38.351416,-122.974134,Bodega,CA,Sonoma County,94922
"Bodega Bay, California",38.367894,-123.048629,Bodega Bay,CA,Sonoma County,94923
"Bodfish, California",35.569608,-118.487681,Bodfish,CA,Kern County,93205
"Bolinas, California",37.90516,-122.69823,Bolinas,CA,Marin County,94924
"Bombay Beach, California",0,0,,,,
"Bonadelle Ranchos, California",37.155177,-119.543418,,CA,,
"Bonita, California",32.67387,-117.020668,Bonita,CA,San Diego County,91902
"Bonny Doon, California",33.786594,-118.298662,Downey,CA,Los Angeles County,90239
"Bonsall, California",33.27616,-117.1941,Bonsall,CA,San Diego County,92003
"Boonville, California",39.046943,-123.418728,Boonville,CA,Mendocino County,95415
"Bootjack, California",35.187133,-117.885359,California City,CA,Kern County,93504
"Boron, California",35.002282,-117.629941,Boron,CA,San Bernardino County,93516
"Boronda, California",35.187133,-117.885359,California City,CA,Kern County,93504
"Borrego Springs, California",33.23943,-116.35607,Borrego Springs,CA,San Diego County,92004
"Bostonia, California",35.187133,-117.885359,California City,CA,Kern County,93504
"Boulder Creek, California",37.176595,-122.130887,Boulder Creek,CA,Santa Cruz County,95006
"Boulevard, California",32.66367,-116.27363,Boulevard,CA,San Diego County,91905
"Bowles, California",35.187133,-117.885359,California City,CA,Kern County,93504
"Boyes Hot Springs, California",38.463088,-122.989975,Boyes Hot Springs,CA,Sonoma County,95416
"Bradbury, California",34.149495,-117.969311,Bradbury,CA,Los Angeles County,91008
"Bradley, California",35.907585,-120.937371,Bradley,CA,Monterey County,93426
"Brawley, California",33.096382,-115.280168,Brawley,CA,Imperial County,92227
"Brea, California",33.927561,-117.887086,Brea,CA,Orange County,92821
"Brentwood, California",37.922228,-121.668359,Brentwood,CA,Contra Costa County,94513
"Bret Harte, California",0,0,,,,
"Bridgeport, California",38.248505,-119.19876,Bridgeport,CA,Mono County,93517
"Brisbane, California",37.689182,-122.404332,Brisbane,CA,San Mateo County,94005
"Broadmoor, California",35.187133,-117.885359,California City,CA,Kern County,93504
"Brookdale, California",37.10634,-122.10608,Brookdale,CA,Santa Cruz County,95007
"Brooks, California",38.799836,-122.181084,Brooks,CA,Yolo County,95606
"Brooktrails, California",35.187133,-117.885359,California City,CA,Kern County,93504
"Buckhorn, California",34.40083,-118.81565,Buckhorn,CA,Ventura County,93015
"Buck Meadows, California",36.354966,-121.21159,Metz,CA,Monterey County,93960
"Bucks Lake, California",39.40672,-121.753522,Biggs,CA,Butte County,95917
"Buellton, California",34.635927,-120.201469,Buellton,CA,Santa Barbara County,93427
"Buena Park, California",33.846302,-118.012225,Buena Park,CA,Orange County,90620
"Buena Vista, California",38.289637,-122.434979,Buena Vista,CA,Sonoma County,95476
"Burbank, California",34.200993,-118.292773,Burbank,CA,Los Angeles County,91501
"Burbank, California",34.200993,-118.292773,Burbank,CA,Los Angeles County,91501
"Burlingame, California",37.567086,-122.367573,Burlingame,CA,San Mateo County,94010
"Burney, California",40.942396,-121.687076,Burney,CA,Shasta County,96013
"Burnt Ranch, California",40.80903,-123.47421,Burnt Ranch,CA,Trinity County,95527
"Butte Creek Canyon, California",38.028983,-121.963861,Pittsburg,CA,Contra Costa County,94565
"Butte Meadows, California",36.354966,-121.21159,Metz,CA,Monterey County,93960
"Butte Valley, California",39.056598,-123.525375,Philo,CA,Mendocino County,95466
"Buttonwillow, California",35.40923,-119.44066,Buttonwillow,CA,Kern County,93206
"Byron, California",37.858925,-121.617002,Byron,CA,Contra Costa County,94514
"Bystrom, California",35.187133,-117.885359,California City,CA,Kern County,93504
"Cabazon, California",33.90989,-116.77596,Cabazon,CA,Riverside County,92230
"Calabasas, California",34.12331,-118.671028,Calabasas,CA,Los Angeles County,91302
"Calexico, California",32.68755,-115.541,Calexico,CA,Imperial County,92231
"Oakhurst, California",37.37586,-119.65238,Oakhurst,CA,Madera County,93644
"Oakland, California",37.786027,-122.223779,Oakland,CA,Alameda County,94601
"Oakley, California",37.996516,-121.68972,Oakley,CA,Contra Costa County,94561
"Oak Park, California",34.184975,-118.766918,Oak Park,CA,Ventura County,91377
"Oak Run, California",40.691529,-122.042324,Oak Run,CA,Shasta County,96069
"Oak Shores, California",0,0,,,,
"Oak View, California",34.412169,-119.292335,Oak View,CA,Ventura County,93022
"Oakville, California",38.437887,-122.399101,Oakville,CA,Napa County,94562
"Oasis, California",33.465863,-116.098892,Oasis,CA,Riverside County,92274
"Occidental, California",38.406676,-123.020406,Occidental,CA,Sonoma County,95465
"Oceano, California",35.106168,-120.611142,Oceano,CA,San Luis Obispo County,93445
"Oceanside, California",33.195534,-117.354538,Oceanside,CA,San Diego County,92054
"Ocotillo, California",32.74309,-116.00189,Ocotillo,CA,Imperial County,92259
"Oildale, California",35.41968,-119.019545,Oildale,CA,Kern County,93308
"Ojai, California",34.5302,-119.310134,Ojai,CA,Ventura County,93023
"Olancha, California",36.229962,-117.955189,Olancha,CA,Inyo County,93549
"Olde Stockdale, California",0,0,,,,
"Old Fig Garden, California",33.888315,-118.295256,Gardena,CA,Los Angeles County,90247
"Old River, California",35.389749,-118.985187,Old River,CA,Kern County,93305
"Old Station, California",40.658943,-121.449467,Old Station,CA,Shasta County,96071
"Old Stine, California",0,0,,,,
"Olivehurst, California",39.07869,-121.5478,Olivehurst,CA,Yuba County,95961
"Ono, California",40.47515,-122.61807,Ono,CA,Shasta County,96072
"Ontario, California",34.05936,-117.6203,Ontario,CA,San Bernardino County,91758
"Onyx, California",35.67204,-118.24101,Onyx,CA,Kern County,93255
"Orange, California",33.640302,-117.769442,Orange,CA,Orange County,92859
"Orange Blossom, California",33.640302,-117.769442,Orange,CA,Orange County,92859
"Orange Cove, California",36.62439,-119.31373,Orange Cove,CA,Fresno County,93646
"Orangevale, California",38.687103,-121.225369,Orangevale,CA,Sacramento County,95662
"Orcutt, California",34.865257,-120.435997,Orcutt,CA,Santa Barbara County,93455
"Orick, California",41.291871,-124.060455,Orick,CA,Humboldt County,95555
"Orinda, California",37.87715,-122.17969,Orinda,CA,Contra Costa County,94563
"Orland, California",39.74738,-122.19637,Orland,CA,Glenn County,95963
"Orosi, California",36.555602,-119.166499,Orosi,CA,Tulare County,93647
"Oroville, California",39.578352,-121.58212,Oroville,CA,Butte County,95965
"Oroville East, California",39.578352,-121.58212,Oroville,CA,Butte County,95965
"Oxnard, California",34.205247,-119.174092,Oxnard,CA,Ventura County,93030
"Pacheco, California",37.983533,-122.075241,Pacheco,CA,Contra Costa County,94553
"Pacifica, California",37.616774,-122.480015,Pacifica,CA,San Mateo County,94044
"Pacific Grove, California",36.61774,-121.91662,Pacific Grove,CA,Monterey County,93950
"Pajaro, California",36.90412,-121.748561,Pajaro,CA,Monterey County,95076
"Pajaro Dunes, California",36.90412,-121.748561,Pajaro,CA,Monterey County,95076
"Pala, California",33.36531,-117.0767,Pala,CA,San Diego County,92059
"Palermo, California",39.43544,-121.53802,Palermo,CA,Butte County,95968
"Palmdale, California",34.408383,-118.123597,Palmdale,CA,Los Angeles County,93550
"Palm Desert, California",33.76437,-116.339766,Palm Desert,CA,Riverside County,92211
"Palm Springs, California",33.842567,-116.527996,Palm Springs,CA,Riverside County,92262
"Palo Alto, California",37.444122,-122.149915,Palo Alto,CA,Santa Clara County,94301
"Palo Cedro, California",40.56844,-122.201552,Palo Cedro,CA,Shasta County,96073
"Palos Verdes Estates, California",33.800571,-118.390074,Palos Verdes Estates,CA,Los Angeles County,90274
"Palo Verde, California",33.369594,-114.735544,Palo Verde,CA,Imperial County,92266
"Panorama Heights, California",35.804951,-118.629255,Panorama Heights,CA,Tulare County,93260
"Paradise town, California",39.723898,-121.572986,Paradise,CA,Butte County,95967
"Paradise, California",39.723898,-121.572986,Paradise,CA,Butte County,95967
"Paradise Park, California",39.723898,-121.572986,Paradise,CA,Butte County,95967
"Paramount, California",33.899015,-118.165152,Paramount,CA,Los Angeles County,90723
"Parklawn, California",35.187133,-117.885359,California City,CA,Kern County,93504
"California City, California",35.187133,-117.885359,California City,CA,Kern County,93504
"California Hot Springs, California",35.881776,-118.656086,California Hot Springs,CA,Tulare County,93207
"California Pines, California",35.187133,-117.885359,California City,CA,Kern County,93504
"California Polytechnic State University, California",0,0,,,,
"Calimesa, California",33.976814,-117.038262,Calimesa,CA,Riverside County,92320
"Calipatria, California",33.157664,-115.510284,Calipatria,CA,Imperial County,92233
"Calistoga, California",38.5788,-122.57971,Calistoga,CA,Napa County,94515
"Callender, California",35.187133,-117.885359,California City,CA,Kern County,93504
"Calpella, California",39.213324,-123.277143,Calpella,CA,Mendocino County,95418
"Calpine, California",39.613937,-120.404625,Calpine,CA,Sierra County,96124
"Calwa, California",35.187133,-117.885359,California City,CA,Kern County,93504
"Camanche North Shore, California",0,0,,,,
"Camanche Village, California",38.18735,-122.224074,Vallejo,CA,Napa County,94589
"Camarillo, California",34.227855,-119.079869,Camarillo,CA,Ventura County,93010
"Cambria, California",35.587748,-120.954454,Cambria,CA,San Luis Obispo County,93428
"Cambrian Park, California",0,0,,,,
"Cameron Park, California",0,0,,,,
"Camino, California",38.745549,-120.693072,Camino,CA,El Dorado County,95709
"Camino Tassajara, California",38.745549,-120.693072,Camino,CA,El Dorado County,95709
"Campbell, California",37.278563,-121.955101,Campbell,CA,Santa Clara County,95008
"Camp Nelson, California",36.14272,-118.60926,Camp Nelson,CA,Tulare County,93208
"Campo, California",32.62611,-116.46833,Campo,CA,San Diego County,91906
"Camp Pendleton Mainside, California",33.387723,-117.444758,Camp Pendleton,CA,San Diego County,92055
"Camp Pendleton South, California",33.387723,-117.444758,Camp Pendleton,CA,San Diego County,92055
"Camptonville, California",39.414386,-121.111454,Camptonville,CA,Yuba County,95922
"Canby, California",41.458738,-120.80293,Canby,CA,Modoc County,96015
"Cantua Creek, California",36.50005,-120.31637,Cantua Creek,CA,Fresno County,93608
"Canyondam, California",40.17006,-121.07671,Canyondam,CA,Plumas County,95923
"Canyon Lake, California",37.833901,-122.165034,Canyon,CA,Contra Costa County,94516
"Capitola, California",36.97523,-121.95329,Capitola,CA,Santa Cruz County,95010
"Caribou, California",40.006256,-121.158894,Caribou,CA,Plumas County,95915
"Carlsbad, California",33.144219,-117.319439,Carlsbad,CA,San Diego County,92008
"Carmel-by-the-Sea, California",36.549729,-121.922515,Carmel,CA,Monterey County,93921
"Carmel Valley Village, California",36.446043,-121.666999,Carmel Valley,CA,Monterey County,93924
"Carmet, California",38.37436,-123.076391,Carmet,CA,Sonoma County,94923
"Carmichael, California",38.62136,-121.332191,Carmichael,CA,Sacramento County,95608
"Carnelian Bay, California",39.229978,-120.066235,Carnelian Bay,CA,Placer County,96140
"Carpinteria, California",34.405045,-119.520525,Carpinteria,CA,Santa Barbara County,93013
"Carrick, California",35.187133,-117.885359,California City,CA,Kern County,93504
"Carson, California",33.813317,-118.261154,Carson,CA,Los Angeles County,90745
"Cartago, California",35.187133,-117.885359,California City,CA,Kern County,93504
"Caruthers, California",36.53993,-119.8449,Caruthers,CA,Fresno County,93609
"Casa Conejo, California",36.21164,-117.947995,Coso,CA,Inyo County,93549
"Casa de Oro-Mount Helix, California",32.748101,-116.978103,Spring Valley,CA,San Diego County,91977
"Casa Loma, California",39.200455,-120.776603,Casa Loma,CA,Placer County,95704
"Casmalia, California",34.845765,-120.534979,Casmalia,CA,Santa Barbara County,93429
"Caspar, California",39.367286,-123.8042,Caspar,CA,Mendocino County,95420
"Cassel, California",40.933652,-121.56766,Cassel,CA,Shasta County,96016
"Castaic, California",33.786594,-118.298662,Castaic,CA,Los Angeles County,91310
"Castella, California",41.110338,-122.316052,Castella,CA,Shasta County,96017
"Castle Hill, California",41.110338,-122.316052,Castella,CA,Shasta County,96017
"Castro Valley, California",37.731229,-122.066373,Castro Valley,CA,Alameda County,94546
"Castroville, California",36.782556,-121.735759,Castroville,CA,Monterey County,95012
"Cathedral City, California",33.818256,-116.466743,Cathedral City,CA,Riverside County,92234
"Catheys Valley, California",37.408643,-120.122715,Catheys Valley,CA,Mariposa County,95306
"Cayucos, California",35.473343,-120.908608,Cayucos,CA,San Luis Obispo County,93430
"Parksdale, California",35.187133,-117.885359,California City,CA,Kern County,93504
"Parkway, California",35.187133,-117.885359,California City,CA,Kern County,93504
"Parkwood, California",36.926891,-120.044605,Parkwood,CA,Madera County,93637
"Parlier, California",36.61162,-119.52707,Parlier,CA,Fresno County,93648
"Pasadena, California",33.786594,-118.298662,Pasadena,CA,Los Angeles County,91050
"Pasatiempo, California",36.970525,-121.987488,Pasatiempo,CA,Santa Cruz County,95062
"Paskenta, California",39.877198,-122.581386,Paskenta,CA,Tehama County,96074
"Patterson, California",37.4716,-121.12966,Patterson,CA,Stanislaus County,95363
"Patterson Tract, California",37.4716,-121.12966,Patterson,CA,Stanislaus County,95363
"Patton Village, California",34.839964,-115.967051,Patton,CA,San Bernardino County,92369
"Paxton, California",40.037946,-120.994956,Paxton,CA,Plumas County,95971
"Paynes Creek, California",40.33544,-121.91499,Paynes Creek,CA,Tehama County,96075
"Pearsonville, California",35.809673,-117.873127,Pearsonville,CA,Inyo County,93527
"Penngrove, California",38.315342,-122.648346,Penngrove,CA,Sonoma County,94951
"Penn Valley, California",39.19518,-121.19412,Penn Valley,CA,Nevada County,95946
"Penryn, California",38.852288,-121.180531,Penryn,CA,Placer County,95663
"Pepperdine University, California",34.1389,-118.35341,Universal City,CA,Los Angeles County,91608
"Perris, California",33.787292,-117.320674,Perris,CA,Riverside County,92570
"Pescadero, California",37.211194,-122.343782,Pescadero,CA,San Mateo County,94060
"Petaluma, California",38.265366,-122.822588,Petaluma,CA,Sonoma County,94952
"Petaluma Center, California",38.265366,-122.822588,Petaluma,CA,Sonoma County,94952
"Peters, California",37.980757,-121.047997,Peters,CA,San Joaquin County,95236
"Phelan, California",34.839964,-115.967051,Phelan,CA,San Bernardino County,92329
"Phillipsville, California",40.20903,-123.78587,Phillipsville,CA,Humboldt County,95559
"Philo, California",39.056598,-123.525375,Philo,CA,Mendocino County,95466
"Phoenix Lake, California",38.25047,-121.509397,Locke,CA,Sacramento County,95690
"Pico Rivera, California",33.985812,-118.088787,Pico Rivera,CA,Los Angeles County,90660
"Piedmont, California",37.680181,-121.921498,Piedmont,CA,Alameda County,94620
"Pierpoint, California",35.187133,-117.885359,California City,CA,Kern County,93504
"Pike, California",39.43906,-120.998008,Pike,CA,Sierra County,95960
"Pine Canyon, California",37.833901,-122.165034,Canyon,CA,Contra Costa County,94516
"Pine Flat, California",35.878006,-118.651477,Pine Flat,CA,Tulare County,93207
"Pine Grove, California",38.4038,-120.668334,Pine Grove,CA,Amador County,95665
"Pine Hills, California",40.798802,-124.15192,Pine Hills,CA,Humboldt County,95501
"Pine Mountain Club, California",34.768537,-119.030293,Pine Mountain Club,CA,Ventura County,93225
"Pine Mountain Lake, California",34.768537,-119.030293,Pine Mountain Club,CA,Ventura County,93225
"Pine Valley, California",32.84146,-116.51083,Pine Valley,CA,San Diego County,91962
"Pinole, California",38.00437,-122.29886,Pinole,CA,Contra Costa County,94564
"Pi√±on Hills, California",34.447894,-117.623946,Pinon Hills,CA,San Bernardino County,92372
"Pioneer, California",38.43186,-120.57187,Pioneer,CA,Amador County,95666
"Piru, California",34.435224,-118.785517,Piru,CA,Ventura County,93040
"Pismo Beach, California",35.347065,-120.455345,Pismo Beach,CA,San Luis Obispo County,93448
"Pittsburg, California",38.00307,-121.917219,Pittsburg,CA,Contra Costa County,94565
"Pixley, California",35.977,-119.28886,Pixley,CA,Tulare County,93256
"Placentia, California",33.881158,-117.854783,Placentia,CA,Orange County,92870
"Placerville, California",38.730224,-120.797149,Placerville,CA,El Dorado County,95667
"Plainview, California",35.187133,-117.885359,California City,CA,Kern County,93504
"Planada, California",37.289085,-120.317156,Planada,CA,Merced County,95365
"Platina, California",40.375954,-122.936967,Platina,CA,Shasta County,96076
"Pleasant Hill, California",37.957572,-122.077774,Pleasant Hill,CA,Contra Costa County,94523
"Pleasanton, California",37.646081,-121.862128,Pleasanton,CA,Alameda County,94566
"Pleasure Point, California",40.467923,-123.168637,Peanut,CA,Trinity County,96041
"Plumas Eureka, California",40.798802,-124.15192,Eureka,CA,Humboldt County,95501
"Plumas Lake, California",38.25047,-121.509397,Locke,CA,Sacramento County,95690
"Plymouth, California",38.486559,-120.86184,Plymouth,CA,Amador County,95669
"Point Arena, California",38.919145,-123.540572,Point Arena,CA,Mendocino County,95468
"Cazadero, California",38.562107,-123.189714,Cazadero,CA,Sonoma County,95421
"Cedar Flat, California",41.42426,-120.111396,Cedarville,CA,Modoc County,96104
"Cedar Ridge, California",39.26599,-120.64145,Cedar Ridge,CA,Placer County,95924
"Cedar Slope, California",39.172636,-121.80251,Sutter,CA,Sutter County,95982
"Cedarville, California",41.42426,-120.111396,Cedarville,CA,Modoc County,96104
"Centerville (Fresno County), California",36.8411,-119.801015,Fresno,CA,Fresno County,93650
"Centerville (Shasta County), California",40.601263,-122.494455,Shasta,CA,Shasta County,96087
"Ceres, California",37.561889,-120.967976,Ceres,CA,Stanislaus County,95307
"Cerritos, California",33.866914,-118.068648,Cerritos,CA,Los Angeles County,90703
"Chalfant, California",35.187133,-117.885359,California City,CA,Kern County,93504
"Challenge-Brownsville, California",39.425005,-121.273889,Brownsville,CA,Yuba County,95919
"Channel Islands Beach, California",40.026261,-123.490301,Island Mountain,CA,Trinity County,95440
"Charleston View, California",0,0,,,,
"Charter Oak, California",0,0,,,,
"Cherokee, California",0,0,,,,
"Cherokee Strip, California",0,0,,,,
"Cherryland, California",37.679376,-122.103297,Cherryland,CA,Alameda County,94541
"Cherry Valley, California",33.972515,-116.977248,Cherry Valley,CA,Riverside County,92223
"Chester, California",40.30159,-121.23395,Chester,CA,Plumas County,96020
"Chico, California",39.746159,-121.840083,Chico,CA,Butte County,95926
"Chilcoot-Vinton, California",39.794837,-120.147908,Chilcoot,CA,Plumas County,96105
"China Lake Acres, California",33.953755,-117.639209,Chino,CA,San Bernardino County,91708
"Chinese Camp, California",37.807938,-120.440467,Chinese Camp,CA,Tuolumne County,95309
"Chino, California",33.953755,-117.639209,Chino,CA,San Bernardino County,91708
"Chino Hills, California",33.9938,-117.75888,Chino Hills,CA,San Bernardino County,91709
"Choctaw Valley, California",39.056598,-123.525375,Philo,CA,Mendocino County,95466
"Chowchilla, California",37.123,-120.26018,Chowchilla,CA,Madera County,93610
"Chualar, California",36.583988,-121.4516,Chualar,CA,Monterey County,93925
"Chula Vista, California",32.636922,-117.050072,Chula Vista,CA,San Diego County,91910
"Citrus, California",35.187133,-117.885359,California City,CA,Kern County,93504
"Citrus Heights, California",38.689802,-121.26736,Citrus Heights,CA,Sacramento County,95610
"Claremont, California",34.09668,-117.71978,Claremont,CA,Los Angeles County,91711
"Clarksburg, California",38.43141,-121.594875,Clarksburg,CA,Yolo County,95612
"Clay, California",35.187133,-117.885359,California City,CA,Kern County,93504
"Clayton, California",37.897832,-121.784818,Clayton,CA,Contra Costa County,94517
"Clear Creek, California",36.488612,-117.874104,Keeler,CA,Inyo County,93530
"Clearlake, California",38.95823,-122.62637,Clearlake,CA,Lake County,95422
"Clearlake Oaks, California",39.02184,-122.66546,Clearlake Oaks,CA,Lake County,95423
"Clearlake Riviera, California",38.95823,-122.62637,Clearlake,CA,Lake County,95422
"Cleone, California",35.187133,-117.885359,California City,CA,Kern County,93504
"Clio, California",39.754627,-120.595092,Clio,CA,Plumas County,96106
"Clipper Mills, California",39.543835,-121.220469,Clipper Mills,CA,Butte County,95930
"Cloverdale, California",38.823075,-123.063567,Cloverdale,CA,Sonoma County,95425
"Clovis, California",36.825296,-119.68019,Clovis,CA,Fresno County,93611
"Clyde, California",35.187133,-117.885359,California City,CA,Kern County,93504
"Coachella, California",33.6803,-116.17389,Coachella,CA,Riverside County,92236
"Coalinga, California",36.247025,-120.381432,Coalinga,CA,Fresno County,93210
"Coarsegold, California",37.26217,-119.70098,Coarsegold,CA,Madera County,93614
"Cobb, California",38.83559,-122.72294,Cobb,CA,Lake County,95426
"Coffee Creek, California",0,0,,,,
"Cohasset, California",39.745628,-121.843834,Cohasset,CA,Butte County,95926
"Cold Springs (El Dorado County), California",38.739161,-120.857467,Placerville,CA,El Dorado County,95667
"Cold Springs (Tuolumne County), California",38.037519,-120.403238,Columbia,CA,Tuolumne County,95310
"Coleville, California",38.533336,-119.485034,Coleville,CA,Mono County,96107
"Colfax, California",39.126473,-120.863763,Colfax,CA,Placer County,95713
"College City, California",39.169245,-122.290204,College City,CA,Colusa County,95931
"Point Reyes Station, California",38.0847,-122.80918,Point Reyes Station,CA,Marin County,94956
"Pollock Pines, California",38.766276,-120.481278,Pollock Pines,CA,El Dorado County,95726
"Pomona, California",34.042286,-117.756106,Pomona,CA,Los Angeles County,91766
"Ponderosa, California",35.187133,-117.885359,California City,CA,Kern County,93504
"Poplar-Cotton Center, California",35.988087,-118.860221,Poplar,CA,Tulare County,93257
"Port Costa, California",38.04697,-122.193028,Port Costa,CA,Contra Costa County,94569
"Porterville, California",35.973777,-118.703592,Porterville,CA,Tulare County,93257
"Port Hueneme, California",34.106896,-119.099535,Port Hueneme,CA,Ventura County,93041
"Portola, California",39.800456,-120.542224,Portola,CA,Plumas County,96122
"Portola Valley town, California",37.370194,-122.218176,Portola Valley,CA,San Mateo County,94028
"Posey, California",35.80467,-118.68287,Posey,CA,Tulare County,93260
"Poso Park, California",35.810784,-118.63481,Poso Park,CA,Tulare County,93260
"Post Mountain, California",34.07001,-117.13448,Mentone,CA,San Bernardino County,92359
"Potomac Park, California",0,0,,,,
"Potrero, California",32.626231,-116.61002,Potrero,CA,San Diego County,91963
"Potter Valley, California",39.360935,-123.106751,Potter Valley,CA,Mendocino County,95469
"Poway, California",32.994097,-117.030299,Poway,CA,San Diego County,92064
"Prattville, California",40.208775,-121.156629,Prattville,CA,Plumas County,95923
"Princeton, California",39.379166,-122.095709,Princeton,CA,Colusa County,95970
"Proberta, California",40.12517,-122.204141,Proberta,CA,Tehama County,96078
"Prunedale, California",35.187133,-117.885359,California City,CA,Kern County,93504
"Pumpkin Center, California",35.266906,-119.033437,Pumpkin Center,CA,Kern County,93383
"Quartz Hill, California",34.60411,-118.239005,Quartz Hill,CA,Los Angeles County,93551
"Quincy, California",39.93103,-120.95478,Quincy,CA,Plumas County,95971
"Rackerby, California",39.44442,-121.318329,Rackerby,CA,Yuba County,95972
"Rail Road Flat, California",38.325626,-120.485154,Rail Road Flat,CA,Calaveras County,95248
"Rainbow, California",33.410308,-117.14781,Rainbow,CA,San Diego County,92028
"Raisin City, California",36.591897,-119.902728,Raisin,CA,Fresno County,93652
"Ramona, California",33.031572,-116.976549,Ramona,CA,San Diego County,92065
"Rancho Calaveras, California",0,0,,,,
"Rancho Cordova, California",38.604269,-121.280328,Rancho Cordova,CA,Sacramento County,95670
"Rancho Cucamonga, California",34.839964,-115.967051,Rancho Cucamonga,CA,San Bernardino County,91729
"Rancho Mirage, California",33.73974,-116.41279,Rancho Mirage,CA,Riverside County,92270
"Rancho Mission Viejo, California",33.889879,-117.821261,Yorba Linda,CA,Orange County,92886
"Rancho Murieta, California",33.835314,-117.19777,Perris,CA,Riverside County,92571
"Rancho Palos Verdes, California",33.753146,-118.367459,Rancho Palos Verdes,CA,Los Angeles County,90275
"Rancho San Diego, California",33.074435,-117.277508,Encinitas,CA,San Diego County,92024
"Rancho Santa Fe, California",33.005026,-117.21569,Rancho Santa Fe,CA,San Diego County,92067
"Rancho Santa Margarita, California",33.619672,-117.612087,Rancho Santa Margarita,CA,Orange County,92688
"Rancho Tehama Reserve, California",40.147019,-122.565441,Cottonwood,CA,Tehama County,96022
"Randsburg, California",35.38661,-117.715928,Randsburg,CA,Kern County,93554
"Red Bluff, California",40.142907,-122.340888,Red Bluff,CA,Tehama County,96080
"Red Corral, California",0,0,,,,
"Redcrest, California",40.36547,-123.895246,Redcrest,CA,Humboldt County,95569
"Redding, California",40.600342,-122.455016,Redding,CA,Shasta County,96001
"Redlands, California",34.011935,-117.159696,Redlands,CA,San Bernardino County,92373
"Redondo Beach, California",33.830006,-118.387124,Redondo Beach,CA,Los Angeles County,90277
"Redway, California",40.12085,-123.82205,Redway,CA,Humboldt County,95560
"Redwood City, California",37.462158,-122.235639,Redwood City,CA,San Mateo County,94061
"Redwood Valley, California",39.26739,-123.20612,Redwood Valley,CA,Mendocino County,95470
"Reedley, California",36.669807,-119.398857,Reedley,CA,Fresno County,93654
"Reliez Valley, California",39.056598,-123.525375,Philo,CA,Mendocino County,95466
"Rexland Acres, California",0,0,,,,
"Rialto, California",34.111606,-117.377406,Rialto,CA,San Bernardino County,92376
"Richfield, California",39.974879,-122.176657,Richfield,CA,Tehama County,96021
"Richgrove, California",35.805046,-119.131527,Richgrove,CA,Tulare County,93261
"Collierville, California",38.214639,-121.268837,Collierville,CA,San Joaquin County,95220
"Colma town, California",38.81419,-120.895188,Coloma,CA,El Dorado County,95613
"Coloma, California",38.81419,-120.895188,Coloma,CA,El Dorado County,95613
"Colton, California",34.0739,-117.31365,Colton,CA,San Bernardino County,92324
"Columbia, California",38.061003,-120.363545,Columbia,CA,Tuolumne County,95310
"Colusa, California",39.21433,-122.00942,Colusa,CA,Colusa County,95932
"Commerce, California",35.187133,-117.885359,California City,CA,Kern County,93504
"Comptche, California",39.238683,-123.58761,Comptche,CA,Mendocino County,95427
"Compton, California",33.874815,-118.240208,Compton,CA,Los Angeles County,90220
"Concord, California",37.953672,-122.022872,Concord,CA,Contra Costa County,94518
"Concow, California",35.187133,-117.885359,California City,CA,Kern County,93504
"Contra Costa Centre, California",37.920202,-122.292049,El Cerrito,CA,Contra Costa County,94530
"Copperopolis, California",37.971877,-120.649912,Copperopolis,CA,Calaveras County,95228
"Corcoran, California",36.09801,-119.5604,Corcoran,CA,Kings County,93212
"Corning, California",39.92766,-122.17916,Corning,CA,Tehama County,96021
"Corona, California",33.752886,-116.055617,Corona,CA,Riverside County,91719
"Coronado, California",32.699235,-117.209642,Coronado,CA,San Diego County,92118
"Coronita, California",35.187133,-117.885359,California City,CA,Kern County,93504
"Corralitos, California",35.187133,-117.885359,California City,CA,Kern County,93504
"Corte Madera town, California",37.925039,-122.512035,Corte Madera,CA,Marin County,94925
"Costa Mesa, California",33.678399,-117.911715,Costa Mesa,CA,Orange County,92626
"Cotati, California",38.463088,-122.989975,Cotati,CA,Sonoma County,94926
"Coto de Caza, California",38.463088,-122.989975,Cotati,CA,Sonoma County,94926
"Cottonwood (Kern County), California",40.39043,-122.28609,Cottonwood,CA,Shasta County,96022
"Cottonwood (Shasta County), California",40.601263,-122.494455,Shasta,CA,Shasta County,96087
"Coulterville, California",37.700116,-120.155251,Coulterville,CA,Mariposa County,95311
"Country Club, California",0,0,,,,
"Courtland, California",38.338322,-121.5378,Courtland,CA,Sacramento County,95615
"Covelo, California",39.835096,-123.148437,Covelo,CA,Mendocino County,95428
"Covina, California",34.097345,-117.906736,Covina,CA,Los Angeles County,91722
"Cowan, California",35.187133,-117.885359,California City,CA,Kern County,93504
"Crane Creek, California",33.752886,-116.055617,Corona,CA,Riverside County,91719
"Crescent City, California",41.819578,-124.065667,Crescent City,CA,Del Norte County,95531
"Crescent Mills, California",40.086309,-120.924541,Crescent Mills,CA,Plumas County,95934
"Cressey, California",37.41966,-120.66742,Cressey,CA,Merced County,95312
"Crest, California",32.807274,-116.86808,Crest,CA,San Diego County,92021
"Crestline, California",34.2501,-117.29463,Crestline,CA,San Bernardino County,92325
"Creston, California",35.477945,-120.436119,Creston,CA,San Luis Obispo County,93432
"C-Road, California",35.932463,-121.468825,Gorda,CA,Monterey County,93920
"Crockett, California",38.04254,-122.21649,Crockett,CA,Contra Costa County,94525
"Cromberg, California",39.860174,-120.691612,Cromberg,CA,Plumas County,96103
"Crowley Lake, California",38.194949,-103.849046,Crowley,CO,Crowley County,81033
"Crows Landing, California",37.429147,-121.054997,Crows Landing,CA,Stanislaus County,95313
"Cudahy, California",33.96057,-118.185349,Cudahy,CA,Los Angeles County,90201
"Culver City, California",33.998214,-118.394059,Culver City,CA,Los Angeles County,90230
"Cupertino, California",37.30661,-122.080628,Cupertino,CA,Santa Clara County,95014
"Cutler, California",36.52577,-119.28792,Cutler,CA,Tulare County,93615
"Cutten, California",40.733552,-123.944021,Cutten,CA,Humboldt County,95534
"Cuyama, California",34.935254,-119.615128,Cuyama,CA,Santa Barbara County,93214
"Cypress, California",33.81696,-118.03729,Cypress,CA,Orange County,90630
"Dales, California",40.313767,-122.071661,Dales,CA,Tehama County,96080
"Daly City, California",37.687509,-122.438783,Daly City,CA,San Mateo County,94014
"Dana Point, California",33.485903,-117.696366,Dana Point,CA,Orange County,92629
"Danville town, California",37.832075,-121.916718,Danville,CA,Contra Costa County,94506
"Daphnedale Park, California",0,0,,,,
"Darwin, California",36.2688,-117.589,Darwin,CA,Inyo County,93522
"Richmond, California",37.947523,-122.384032,Richmond,CA,Contra Costa County,94801
"Richvale, California",39.480222,-121.838454,Richvale,CA,Butte County,95974
"Ridgecrest, California",35.606509,-117.683472,Ridgecrest,CA,Kern County,93555
"Ridgecrest Heights, California",35.606509,-117.683472,Ridgecrest,CA,Kern County,93555
"Ridgemark, California",35.187133,-117.885359,California City,CA,Kern County,93504
"Rio Dell, California",40.472423,-124.12184,Rio Dell,CA,Humboldt County,95562
"Rio del Mar, California",40.472423,-124.12184,Rio Dell,CA,Humboldt County,95562
"Rio Linda, California",38.68732,-121.45879,Rio Linda,CA,Sacramento County,95673
"Rio Oso, California",38.931318,-121.489882,Rio Oso,CA,Sutter County,95674
"Rio Vista, California",38.209069,-121.777874,Rio Vista,CA,Solano County,94571
"Ripley, California",33.525304,-114.656069,Ripley,CA,Riverside County,92272
"Ripon, California",37.765177,-121.115411,Ripon,CA,San Joaquin County,95366
"Riverbank, California",37.729282,-120.942905,Riverbank,CA,Stanislaus County,95367
"Riverdale, California",36.466514,-119.97768,Riverdale,CA,Fresno County,93656
"Riverdale Park, California",36.466514,-119.97768,Riverdale,CA,Fresno County,93656
"Rivergrove, California",35.187133,-117.885359,California City,CA,Kern County,93504
"River Pines, California",38.544557,-120.74279,River Pines,CA,Amador County,95675
"Riverside, California",33.99504,-117.373184,Riverside,CA,Riverside County,92501
"Robbins, California",38.868875,-121.70949,Robbins,CA,Sutter County,95676
"Robinson Mill, California",39.364333,-121.608025,Robinsons Corner,CA,Butte County,95965
"Rocklin, California",38.801233,-121.230374,Rocklin,CA,Placer County,95677
"Rodeo, California",38.030821,-122.245129,Rodeo,CA,Contra Costa County,94572
"Rodriguez Camp, California",32.62611,-116.46833,Campo,CA,San Diego County,91906
"Rohnert Park, California",38.345663,-122.698398,Rohnert Park,CA,Sonoma County,94928
"Rolling Hills, California",33.756962,-118.353961,Rolling Hills,CA,Los Angeles County,90274
"Rolling Hills, California",33.756962,-118.353961,Rolling Hills,CA,Los Angeles County,90274
"Rolling Hills Estates, California",33.756962,-118.353961,Rolling Hills,CA,Los Angeles County,90274
"Rollingwood, California",37.965201,-122.329971,Rollingwood,CA,Contra Costa County,94806
"Romoland, California",35.187133,-117.885359,California City,CA,Kern County,93504
"Rosamond, California",34.86576,-118.21547,Rosamond,CA,Kern County,93560
"Rosedale, California",35.468183,-118.779649,Rosedale,CA,Kern County,93306
"Rose Hills, California",37.963111,-122.563588,Ross,CA,Marin County,94957
"Rosemead, California",34.065493,-118.084529,Rosemead,CA,Los Angeles County,91770
"Rosemont, California",38.551851,-121.364674,Rosemont,CA,Sacramento County,95826
"Roseville, California",38.74073,-121.25603,Roseville,CA,Placer County,95661
"Ross town, California",37.963111,-122.563588,Ross,CA,Marin County,94957
"Rossmoor, California",33.785572,-118.085064,Rossmoor,CA,Orange County,90720
"Rough and Ready, California",39.225477,-121.148643,Rough And Ready,CA,Nevada County,95975
"Round Mountain, California",40.80053,-121.93748,Round Mountain,CA,Shasta County,96084
"Round Valley, California",37.419376,-118.587619,Round Valley,CA,Inyo County,93514
"Rouse, California",35.187133,-117.885359,California City,CA,Kern County,93504
"Rowland Heights, California",33.9781,-117.88749,Rowland Heights,CA,Los Angeles County,91748
"Rumsey, California",38.89667,-122.348664,Rumsey,CA,Yolo County,95679
"Running Springs, California",34.210229,-117.110941,Running Springs,CA,San Bernardino County,92382
"Ruth, California",40.459063,-123.673165,Ruth,CA,Humboldt County,95526
"Rutherford, California",38.45852,-122.42248,Rutherford,CA,Napa County,94573
"Sacramento, California",38.377411,-121.444429,Sacramento,CA,Sacramento County,94240
"Sage, California",33.581693,-116.932246,Sage,CA,Riverside County,92343
"St. Helena, California",38.537757,-122.401289,Saint Helena,CA,Napa County,94574
"Salida, California",37.71553,-121.08695,Salida,CA,Stanislaus County,95368
"Salinas, California",36.64152,-121.622188,Salinas,CA,Monterey County,93901
"Salmon Creek, California",38.350472,-123.062224,Salmon Creek,CA,Sonoma County,94923
"Salton City, California",33.309217,-115.957782,Salton City,CA,Imperial County,92275
"Salton Sea Beach, California",33.309217,-115.957782,Salton City,CA,Imperial County,92275
"Salyer, California",40.89013,-123.58449,Salyer,CA,Trinity County,95563
"Samoa, California",40.795138,-124.199568,Samoa,CA,Humboldt County,95564
"Davenport, California",37.097536,-122.24338,Davenport,CA,Santa Cruz County,95017
"Davis, California",38.55413,-121.798469,Davis,CA,Yolo County,95616
"Day Valley, California",39.056598,-123.525375,Philo,CA,Mendocino County,95466
"Deer Park, California",38.549425,-122.476383,Deer Park,CA,Napa County,94576
"Del Aire, California",36.133527,-119.299856,Tulare,CA,Tulare County,93274
"Delano, California",35.779507,-119.200825,Delano,CA,Kern County,93215
"Del Dios, California",37.155177,-119.543418,,CA,,
"Delft Colony, California",39.596546,-122.032181,Glenn,CA,Glenn County,95943
"Delhi, California",37.429369,-120.762047,Delhi,CA,Merced County,95315
"Delleker, California",35.187133,-117.885359,California City,CA,Kern County,93504
"Del Mar, California",32.95949,-117.26531,Del Mar,CA,San Diego County,92014
"Del Monte Forest, California",39.491285,-120.853002,Forest,CA,Sierra County,95910
"Del Rey, California",36.6524,-119.592015,Del Rey,CA,Fresno County,93616
"Del Rey Oaks, California",35.118865,-120.594892,Oaks,CA,San Luis Obispo County,93420
"Del Rio, California",36.133527,-119.299856,Tulare,CA,Tulare County,93274
"Denair, California",37.55026,-120.718131,Denair,CA,Stanislaus County,95316
"Derby Acres, California",0,0,,,,
"Descanso, California",32.85283,-116.61585,Descanso,CA,San Diego County,91916
"Desert Center, California",33.809041,-115.366577,Desert Center,CA,Riverside County,92239
"Desert Edge, California",0,0,,,,
"Desert Hot Springs, California",33.95154,-116.520104,Desert Hot Springs,CA,Riverside County,92240
"Desert Palms, California",34.498528,-118.164861,Acton,CA,Los Angeles County,93510
"Desert Shores, California",0,0,,,,
"Desert View Highlands, California",34.498528,-118.164861,Acton,CA,Los Angeles County,93510
"Diablo, California",37.838744,-121.96672,Diablo,CA,Contra Costa County,94528
"Diablo Grande, California",37.838744,-121.96672,Diablo,CA,Contra Costa County,94528
"Diamond Bar, California",34.02862,-117.81034,Diamond Bar,CA,Los Angeles County,91765
"Diamond Springs, California",38.68208,-120.82209,Diamond Springs,CA,El Dorado County,95619
"Di Giorgio, California",35.252739,-118.851487,Di Giorgio,CA,Kern County,93217
"Dillon Beach, California",38.25075,-122.96528,Dillon Beach,CA,Marin County,94929
"Dinuba, California",36.509532,-119.395365,Dinuba,CA,Tulare County,93618
"Discovery Bay, California",37.90854,-121.60023,Discovery Bay,CA,Contra Costa County,94505
"Dixon, California",38.397372,-121.761419,Dixon,CA,Solano County,95620
"Dixon Lane-MeadowCreek, California",38.397372,-121.761419,Dixon,CA,Solano County,95620
"Dobbins, California",39.377751,-121.188917,Dobbins,CA,Yuba County,95935
"Dogtown, California",35.187133,-117.885359,California City,CA,Kern County,93504
"Dollar Point, California",36.133527,-119.299856,Tulare,CA,Tulare County,93274
"Dorrington, California",38.301305,-120.277139,Dorrington,CA,Calaveras County,95223
"Dorris, California",41.919428,-121.973887,Dorris,CA,Siskiyou County,96023
"Dos Palos, California",37.073301,-120.623363,Dos Palos,CA,Merced County,93620
"Dos Palos Y, California",37.073301,-120.623363,Dos Palos,CA,Merced County,93620
"Douglas City, California",40.668853,-122.942468,Douglas City,CA,Trinity County,96024
"Downey, California",33.786594,-118.298662,Downey,CA,Los Angeles County,90239
"Downieville, California",39.558607,-120.853714,Downieville,CA,Sierra County,95936
"Doyle, California",40.02796,-120.10382,Doyle,CA,Lassen County,96109
"Drytown, California",38.437001,-120.845706,Drytown,CA,Amador County,95699
"Duarte, California",34.141586,-117.957627,Duarte,CA,Los Angeles County,91010
"Dublin, California",37.714402,-121.906329,Dublin,CA,Alameda County,94568
"Ducor, California",35.89433,-119.04557,Ducor,CA,Tulare County,93218
"Dunnigan, California",38.88518,-121.96969,Dunnigan,CA,Yolo County,95937
"Dunsmuir, California",41.20821,-122.27195,Dunsmuir,CA,Siskiyou County,96025
"Durham, California",39.626362,-121.777546,Durham,CA,Butte County,95938
"Dustin Acres, California",33.73401,-117.819157,Tustin,CA,Orange County,92780
"Dutch Flat, California",39.196515,-120.829762,Dutch Flat,CA,Placer County,95714
"Eagleville, California",41.31628,-120.11577,Eagleville,CA,Modoc County,96110
"Earlimart, California",35.875918,-119.262323,Earlimart,CA,Tulare County,93219
"San Andreas, California",38.190106,-120.616052,San Andreas,CA,Calaveras County,95249
"San Anselmo town, California",37.995864,-122.577814,San Anselmo,CA,Marin County,94960
"San Antonio Heights, California",34.105281,-117.662035,San Antonio Heights,CA,San Bernardino County,91786
"San Ardo, California",35.982551,-120.828342,San Ardo,CA,Monterey County,93450
"San Bernardino, California",34.104794,-117.29215,San Bernardino,CA,San Bernardino County,92401
"San Bruno, California",37.623159,-122.436034,San Bruno,CA,San Mateo County,94066
"San Buenaventura (Ventura), California",35.643432,-117.796445,Inyokern,CA,Kern County,93527
"San Carlos, California",37.496461,-122.272556,San Carlos,CA,San Mateo County,94070
"San Clemente, California",33.42362,-117.606843,San Clemente,CA,Orange County,92672
"Sand City, California",36.617182,-121.848286,Sand City,CA,Monterey County,93955
"San Diego, California",32.724103,-117.170912,San Diego,CA,San Diego County,92101
"San Diego Country Estates, California",32.724103,-117.170912,San Diego,CA,San Diego County,92101
"San Dimas, California",34.10668,-117.80673,San Dimas,CA,Los Angeles County,91773
"San Fernando, California",34.286689,-118.435078,San Fernando,CA,Los Angeles County,91340
"San Francisco, California",37.776646,-122.417481,San Francisco,CA,San Francisco County,94101
"San Gabriel, California",34.114772,-118.089431,San Gabriel,CA,Los Angeles County,91775
"Sanger, California",36.70801,-119.55597,Sanger,CA,Fresno County,93657
"San Geronimo, California",38.00659,-122.66309,San Geronimo,CA,Marin County,94963
"San Jacinto, California",33.752886,-116.055617,San Jacinto,CA,Riverside County,92581
"San Joaquin, California",36.60662,-120.18904,San Joaquin,CA,Fresno County,93660
"San Jose, California",37.346608,-121.909871,San Jose,CA,Santa Clara County,95110
"San Juan Bautista, California",36.84551,-121.538,San Juan Bautista,CA,San Benito County,95045
"San Juan Capistrano, California",33.501773,-117.608674,San Juan Capistrano,CA,Orange County,92675
"San Leandro, California",37.715629,-122.158621,San Leandro,CA,Alameda County,94577
"San Lorenzo, California",37.68123,-122.133825,San Lorenzo,CA,Alameda County,94580
"San Lucas, California",36.12835,-121.02173,San Lucas,CA,Monterey County,93954
"San Luis Obispo, California",35.265573,-120.62122,San Luis Obispo,CA,San Luis Obispo County,93401
"San Marcos, California",33.170778,-117.158674,San Marcos,CA,San Diego County,92069
"San Marino, California",34.122671,-118.112911,San Marino,CA,Los Angeles County,91108
"San Martin, California",37.090125,-121.606099,San Martin,CA,Santa Clara County,95046
"San Mateo, California",37.573485,-122.32253,San Mateo,CA,San Mateo County,94401
"San Miguel (Contra Costa County), California",35.75327,-120.69251,San Miguel,CA,San Luis Obispo County,93451
"San Miguel (San Luis Obispo County), California",34.400603,-119.708884,Santa Barbara,CA,Santa Barbara County,93109
"San Pablo, California",37.959573,-122.334131,San Pablo,CA,Contra Costa County,94806
"San Pasqual, California",33.102005,-117.08042,San Pasqual,CA,San Diego County,92025
"San Rafael, California",37.970948,-122.504286,San Rafael,CA,Marin County,94901
"San Ramon, California",37.768556,-121.975531,San Ramon,CA,Contra Costa County,94583
"San Simeon, California",35.64386,-121.19075,San Simeon,CA,San Luis Obispo County,93452
"Santa Ana, California",33.74822,-117.858473,Santa Ana,CA,Orange County,92701
"Santa Barbara, California",34.421897,-119.707135,Santa Barbara,CA,Santa Barbara County,93101
"Santa Clara, California",37.351158,-121.952295,Santa Clara,CA,Santa Clara County,95050
"Santa Clarita, California",34.440891,-118.501748,Santa Clarita,CA,Los Angeles County,91350
"Santa Cruz, California",37.052748,-122.111126,Santa Cruz,CA,Santa Cruz County,95060
"Santa Fe Springs, California",33.927063,-118.063698,Santa Fe Springs,CA,Los Angeles County,90670
"Santa Margarita, California",35.358427,-120.259602,Santa Margarita,CA,San Luis Obispo County,93453
"Santa Maria, California",34.875832,-120.340795,Santa Maria,CA,Santa Barbara County,93454
"Santa Monica, California",34.013666,-118.49375,Santa Monica,CA,Los Angeles County,90401
"Santa Nella, California",32.843956,-116.994511,Santee,CA,San Diego County,92071
"Santa Paula, California",34.364943,-119.085704,Santa Paula,CA,Ventura County,93060
"Santa Rosa, California",38.450412,-122.783159,Santa Rosa,CA,Sonoma County,95401
"Santa Rosa Valley, California",38.450412,-122.783159,Santa Rosa,CA,Sonoma County,95401
"Santa Susana, California",32.843956,-116.994511,Santee,CA,San Diego County,92071
"Santa Venetia, California",37.998534,-122.525254,Santa Venetia,CA,Marin County,94903
"Santa Ynez, California",34.646136,-120.091629,Santa Ynez,CA,Santa Barbara County,93460
"Santee, California",32.843956,-116.994511,Santee,CA,San Diego County,92071
"Eastern Goleta Valley, California",34.435829,-119.827639,Goleta,CA,Santa Barbara County,93116
"East Foothills, California",37.381051,-121.817453,East Foothills,CA,Santa Clara County,95127
"East Hemet, California",33.667301,-116.963506,Hemet,CA,Riverside County,92543
"East Los Angeles, California",34.023902,-118.172016,East Los Angeles,CA,Los Angeles County,90022
"East Nicolaus, California",38.90323,-121.57774,Nicolaus,CA,Sutter County,95659
"East Niles, California",0,0,,,,
"East Oakdale, California",37.839643,-120.698578,Oakdale,CA,Stanislaus County,95361
"Easton, California",35.187133,-117.885359,California City,CA,Kern County,93504
"East Orosi, California",36.555602,-119.166499,Orosi,CA,Tulare County,93647
"East Palo Alto, California",37.444122,-122.149915,Palo Alto,CA,Santa Clara County,94301
"East Pasadena, California",33.786594,-118.298662,Pasadena,CA,Los Angeles County,91050
"East Porterville, California",36.057452,-118.975655,East Porterville,CA,Tulare County,93257
"East Quincy, California",39.934059,-120.898008,East Quincy,CA,Plumas County,95971
"East Rancho Dominguez, California",33.874815,-118.240208,Rancho Dominguez,CA,Los Angeles County,90220
"East Richmond Heights, California",37.947523,-122.384032,Richmond,CA,Contra Costa County,94801
"East San Gabriel, California",34.114772,-118.089431,San Gabriel,CA,Los Angeles County,91775
"East Shore, California",0,0,,,,
"East Sonora, California",37.96091,-120.343863,Sonora,CA,Tuolumne County,95370
"East Tulare Villa, California",36.133527,-119.299856,Tulare,CA,Tulare County,93274
"Eastvale, California",35.187133,-117.885359,California City,CA,Kern County,93504
"East Whittier, California",33.963346,-118.018121,East Whittier,CA,Los Angeles County,90609
"Edgewood, California",35.187133,-117.885359,California City,CA,Kern County,93504
"Edison, California",35.34746,-118.87176,Edison,CA,Kern County,93220
"Edmundson Acres, California",35.228851,-118.823153,Edmundson Acres,CA,Kern County,93203
"Edna, California",35.187133,-117.885359,California City,CA,Kern County,93504
"Edwards AFB, California",34.960825,-117.835384,Edwards,CA,Kern County,93523
"El Adobe, California",37.155177,-119.543418,,CA,,
"El Cajon, California",32.776012,-116.880634,El Cajon,CA,San Diego County,92019
"El Centro, California",32.770275,-115.598602,El Centro,CA,Imperial County,92243
"El Centro Naval Air Facility, California",32.770275,-115.598602,El Centro,CA,Imperial County,92243
"El Cerrito, California",37.918024,-122.30248,El Cerrito,CA,Contra Costa County,94530
"El Cerrito, California",37.918024,-122.30248,El Cerrito,CA,Contra Costa County,94530
"El Dorado Hills, California",38.686847,-121.044846,El Dorado Hills,CA,El Dorado County,95762
"Eldridge, California",38.348343,-122.517056,Eldridge,CA,Sonoma County,95431
"Elfin Forest, California",39.491285,-120.853002,Forest,CA,Sierra County,95910
"El Granada, California",37.510085,-122.473404,El Granada,CA,San Mateo County,94018
"Elizabeth Lake, California",38.25047,-121.509397,Locke,CA,Sacramento County,95690
"Elk Creek, California",39.54842,-122.567428,Elk Creek,CA,Glenn County,95939
"Elk Grove, California",38.44148,-121.307142,Elk Grove,CA,Sacramento County,95624
"Elkhorn, California",35.187133,-117.885359,California City,CA,Kern County,93504
"El Macero, California",38.54431,-121.685904,El Macero,CA,Yolo County,95618
"East Bakersfield, California",35.384337,-119.020562,Bakersfield,CA,Kern County,93301
"Elmira, California",38.35232,-121.90772,Elmira,CA,Solano County,95625
"El Monte, California",34.078573,-118.043456,El Monte,CA,Los Angeles County,91731
"El Monte Mobile Village, California",34.078573,-118.043456,El Monte,CA,Los Angeles County,91731
"El Nido, California",37.125735,-120.504934,El Nido,CA,Merced County,95317
"El Paso de Robles (Paso Robles), California",35.640598,-120.700313,Paso Robles,CA,San Luis Obispo County,93446
"El Portal, California",37.67465,-119.78406,El Portal,CA,Mariposa County,95318
"El Rancho, California",0,0,,,,
"El Rio, California",0,0,,,,
"El Segundo, California",33.91918,-118.41647,El Segundo,CA,Los Angeles County,90245
"El Sobrante (Contra Costa County), California",37.95954,-122.283555,El Sobrante,CA,Contra Costa County,94803
"El Sobrante (Riverside County), California",33.858022,-117.425576,Riverside,CA,Riverside County,92503
"El Verano, California",38.313864,-122.513093,El Verano,CA,Sonoma County,95433
"Elverta, California",38.71379,-121.46273,Elverta,CA,Sacramento County,95626
"Saratoga, California",37.257287,-122.045164,Saratoga,CA,Santa Clara County,95070
"Saticoy, California",35.187133,-117.885359,California City,CA,Kern County,93504
"Sattley, California",39.616014,-120.427155,Sattley,CA,Sierra County,96124
"Sausalito, California",37.850417,-122.531423,Sausalito,CA,Marin County,94965
"Scotia, California",40.48236,-124.10088,Scotia,CA,Humboldt County,95565
"Scotts Valley, California",37.071387,-122.006276,Scotts Valley,CA,Santa Cruz County,95066
"Seacliff, California",35.187133,-117.885359,California City,CA,Kern County,93504
"Seal Beach, California",33.74141,-118.10479,Seal Beach,CA,Orange County,90740
"Sea Ranch, California",0,0,,,,
"Searles Valley, California",35.767454,-117.403947,Searles Valley,CA,San Bernardino County,93562
"Seaside, California",36.61107,-121.85162,Seaside,CA,Monterey County,93955
"Sebastopol, California",38.407222,-122.869654,Sebastopol,CA,Sonoma County,95472
"Seeley, California",32.79413,-115.694768,Seeley,CA,Imperial County,92273
"Selma, California",36.57078,-119.61208,Selma,CA,Fresno County,93662
"Sequoia Crest, California",32.602203,-117.023583,Chula Vista,CA,San Diego County,91911
"Sereno del Mar, California",33.082696,-117.261983,Carlsbad,CA,San Diego County,92009
"Seville, California",36.391777,-119.372842,Seville,CA,Tulare County,93291
"Shafter, California",35.50051,-119.27178,Shafter,CA,Kern County,93263
"Shandon, California",35.610073,-120.291994,Shandon,CA,San Luis Obispo County,93461
"Shasta, California",40.601263,-122.494455,Shasta,CA,Shasta County,96087
"Shasta Lake, California",40.69686,-122.368263,Shasta Lake,CA,Shasta County,96019
"Shaver Lake, California",37.098774,-119.166093,Shaver Lake,CA,Fresno County,93664
"Shell Ridge, California",0,0,,,,
"Shelter Cove, California",37.596326,-122.512754,Shelter Cove,CA,San Mateo County,94044
"Sheridan, California",38.989408,-121.346893,Sheridan,CA,Placer County,95681
"Shingle Springs, California",38.67018,-120.9421,Shingle Springs,CA,El Dorado County,95682
"Shingletown, California",40.488664,-121.960944,Shingletown,CA,Shasta County,96088
"Shoshone, California",35.977703,-116.270561,Shoshone,CA,Inyo County,92384
"Sierra Brooks, California",38.681757,-121.790933,Woodland,CA,Yolo County,95695
"Sierra City, California",39.593596,-120.626908,Sierra City,CA,Sierra County,96125
"Sierra Madre, California",34.168771,-118.050216,Sierra Madre,CA,Los Angeles County,91024
"Sierra Village, California",38.18735,-122.224074,Vallejo,CA,Napa County,94589
"Sierraville, California",39.582462,-120.371073,Sierraville,CA,Sierra County,96126
"Signal Hill, California",33.803448,-118.168135,Signal Hill,CA,Los Angeles County,90755
"Silverado, California",33.74613,-117.63699,Silverado,CA,Orange County,92676
"Silverado Resort, California",33.74613,-117.63699,Silverado,CA,Orange County,92676
"Silver City, California",36.466054,-118.645928,Silver City,CA,Tulare County,93271
"Silver Lakes, California",0,0,,,,
"Simi Valley, California",34.30873,-118.687222,Simi Valley,CA,Ventura County,93063
"Sisquoc, California",34.864702,-120.291546,Sisquoc,CA,Santa Barbara County,93454
"Sky Valley, California",33.95154,-116.520104,Sky Valley,CA,Riverside County,92240
"Sleepy Hollow, California",34.004473,-117.684702,Sleepy Hollow,CA,San Bernardino County,91710
"Saranap, California",35.187133,-117.885359,California City,CA,Kern County,93504
"Smartsville, California",35.187133,-117.885359,California City,CA,Kern County,93504
"Smith Corner, California",0,0,,,,
"Smith River, California",41.925977,-124.159812,Smith River,CA,Del Norte County,95567
"Snelling, California",37.483708,-120.463408,Snelling,CA,Merced County,95369
"Soda Bay, California",39.001008,-122.789158,Soda Bay,CA,Lake County,95451
"Soda Springs, California",39.32324,-120.37993,Soda Springs,CA,Nevada County,95728
"Solana Beach, California",33.007075,-117.256769,Solana Beach,CA,San Diego County,92075
"Soledad, California",36.449485,-121.368127,Soledad,CA,Monterey County,93960
"Solvang, California",34.648841,-120.170111,Solvang,CA,Santa Barbara County,93463
"Somis, California",34.304034,-119.039305,Somis,CA,Ventura County,93066
"Sonoma, California",38.255943,-122.476819,Sonoma,CA,Sonoma County,95476
"Sonoma State University, California",38.255943,-122.476819,Sonoma,CA,Sonoma County,95476
"Sonora, California",37.96091,-120.343863,Sonora,CA,Tuolumne County,95370
"Emerald Lake Hills, California",0,0,,,,
"Emeryville, California",37.833876,-122.29548,Emeryville,CA,Alameda County,94608
"Empire, California",37.63826,-120.90215,Empire,CA,Stanislaus County,95319
"Encinitas, California",33.016928,-116.846046,Encinitas,CA,San Diego County,92023
"Escalon, California",37.817826,-121.033598,Escalon,CA,San Joaquin County,95320
"Escondido, California",33.102005,-117.08042,Escondido,CA,San Diego County,92025
"Esparto, California",38.69377,-122.02299,Esparto,CA,Yolo County,95627
"Etna, California",41.44631,-123.010024,Etna,CA,Siskiyou County,96027
"Eucalyptus Hills, California",0,0,,,,
"Eureka, California",40.798802,-124.15192,Eureka,CA,Humboldt County,95501
"Exeter, California",36.344716,-119.088371,Exeter,CA,Tulare County,93221
"Fairbanks Ranch, California",0,0,,,,
"Fairfax, California",37.981723,-122.607791,Fairfax,CA,Marin County,94930
"Fairfax town, California",37.981723,-122.607791,Fairfax,CA,Marin County,94930
"Fairfield, California",38.278428,-122.020276,Fairfield,CA,Solano County,94533
"Fairhaven, California",35.187133,-117.885359,California City,CA,Kern County,93504
"Fairmead, California",37.076334,-120.192949,Fairmead,CA,Madera County,93610
"Fair Oaks, California",38.655263,-121.260709,Fair Oaks,CA,Sacramento County,95628
"Fairview, California",35.187133,-117.885359,California City,CA,Kern County,93504
"Fallbrook, California",33.390477,-117.209427,Fallbrook,CA,San Diego County,92028
"Fall River Mills, California",41.034309,-121.471061,Fall River Mills,CA,Shasta County,96028
"Farmersville, California",36.304981,-119.202664,Farmersville,CA,Tulare County,93223
"Farmington, California",37.92987,-121.00436,Farmington,CA,San Joaquin County,95230
"Fellows, California",35.17818,-119.54755,Fellows,CA,Kern County,93224
"Felton, California",37.04127,-122.07551,Felton,CA,Santa Cruz County,95018
"Ferndale, California",40.465229,-124.26879,Ferndale,CA,Humboldt County,95536
"Fetters Hot Springs-Agua Caliente, California",34.968919,-118.129518,Mojave,CA,Kern County,93501
"Fiddletown, California",38.510343,-120.708029,Fiddletown,CA,Amador County,95629
"Fieldbrook, California",40.855672,-124.06672,Fieldbrook,CA,Humboldt County,95521
"Fields Landing, California",40.72533,-124.21666,Fields Landing,CA,Humboldt County,95537
"Fillmore, California",34.393387,-118.864285,Fillmore,CA,Ventura County,93015
"Firebaugh, California",36.85884,-120.45601,Firebaugh,CA,Fresno County,93622
"Fish Camp, California",37.51165,-119.652872,Fish Camp,CA,Mariposa County,93623
"Florence-Graham, California",33.974459,-118.248129,Florence,CA,Los Angeles County,90001
"Florin, California",35.187133,-117.885359,California City,CA,Kern County,93504
"Floriston, California",39.392752,-120.021212,Floriston,CA,Nevada County,96111
"Flournoy, California",39.902424,-122.491767,Flournoy,CA,Tehama County,96029
"Folsom, California",38.666597,-121.141636,Folsom,CA,Sacramento County,95630
"Fontana, California",34.103288,-117.4363,Fontana,CA,San Bernardino County,92334
"Foothill Farms, California",0,0,,,,
"Forbestown, California",39.528374,-121.265237,Forbestown,CA,Butte County,95941
"Ford City, California",35.154411,-119.45623,Ford City,CA,Kern County,93268
"Foresthill, California",39.024453,-120.862663,Foresthill,CA,Placer County,95631
"Forest Meadows, California",39.491285,-120.853002,Forest,CA,Sierra County,95910
"Forest Ranch, California",39.88211,-121.67275,Forest Ranch,CA,Butte County,95942
"Forestville, California",38.509736,-122.918385,Forestville,CA,Sonoma County,95436
"Fort Bidwell, California",41.86045,-120.15134,Fort Bidwell,CA,Modoc County,96112
"Fort Bragg, California",39.4,-123.81667,Fort Bragg,CA,Mendocino County,95437
"Fort Dick, California",41.892473,-124.145734,Fort Dick,CA,Del Norte County,95538
"Fort Hunter Liggett, California",39.873214,-123.721407,Leggett,CA,Mendocino County,95585
"Fort Irwin, California",35.262453,-116.696561,Fort Irwin,CA,San Bernardino County,92310
"Fort Jones, California",41.581383,-122.824847,Fort Jones,CA,Siskiyou County,96032
"Fortuna, California",40.59819,-124.15728,Fortuna,CA,Humboldt County,95540
"Fort Washington, California",39.352343,-120.79118,Washington,CA,Nevada County,95986
"Foster City, California",0,0,,,,
"Fountain Valley, California",33.710582,-117.951129,Fountain Valley,CA,Orange County,92708
"Soquel, California",37.031948,-121.94972,Soquel,CA,Santa Cruz County,95073
"Soulsbyville, California",37.99176,-120.26166,Soulsbyville,CA,Tuolumne County,95372
"South Dos Palos, California",36.96439,-120.65324,South Dos Palos,CA,Merced County,93665
"South El Monte, California",34.05195,-118.04673,South El Monte,CA,Los Angeles County,91733
"South Gate, California",33.937714,-118.193403,South Gate,CA,Los Angeles County,90280
"South Lake Tahoe, California",38.927507,-120.039632,South Lake Tahoe,CA,El Dorado County,96150
"South Monrovia Island, California",34.1528,-118.000482,Monrovia,CA,Los Angeles County,91016
"South Oroville, California",39.593945,-121.581363,South Oroville,CA,Butte County,95965
"South Pasadena, California",34.108957,-118.156615,South Pasadena,CA,Los Angeles County,91030
"South San Francisco, California",37.657443,-122.423483,South San Francisco,CA,San Mateo County,94080
"South San Gabriel, California",34.06251,-118.090347,South San Gabriel,CA,Los Angeles County,91770
"South San Jose Hills, California",37.346608,-121.909871,San Jose,CA,Santa Clara County,95110
"South Taft, California",35.13469,-119.45623,South Taft,CA,Kern County,93268
"South Whittier, California",34.004311,-118.0441,Whittier,CA,Los Angeles County,90601
"Spaulding, California",40.652949,-120.771901,Spalding Tract,CA,Lassen County,96130
"Spreckels, California",36.62472,-121.64648,Spreckels,CA,Monterey County,93962
"Spring Garden, California",39.894894,-120.78606,Spring Garden,CA,Plumas County,95971
"Spring Valley (Lake County), California",32.718352,-117.000109,Spring Valley,CA,San Diego County,91977
"Spring Valley (San Diego County), California",33.316795,-117.005601,Pauma Valley,CA,San Diego County,92061
"Spring Valley Lake, California",32.718352,-117.000109,Spring Valley,CA,San Diego County,91977
"Springville, California",36.245927,-118.693138,Springville,CA,Tulare County,93265
"Squaw Valley, California",36.69447,-119.2001,Squaw Valley,CA,Fresno County,93675
"Squirrel Mountain Valley, California",37.189396,-121.705327,Mountain View,CA,Santa Clara County,94039
"Stallion Springs, California",35.088855,-118.642591,Stallion Springs,CA,Kern County,93561
"Stanford, California",37.42509,-122.1675,Stanford,CA,Santa Clara County,94305
"Stanton, California",33.80252,-117.99312,Stanton,CA,Orange County,90680
"Stebbins, California",35.187133,-117.885359,California City,CA,Kern County,93504
"Stevenson Ranch, California",34.39048,-118.57372,Stevenson Ranch,CA,Los Angeles County,91381
"Stevinson, California",37.324536,-120.864936,Stevinson,CA,Merced County,95374
"Stinson Beach, California",37.911625,-122.652043,Stinson Beach,CA,Marin County,94970
"Stirling City, California",39.875599,-121.536315,Stirling City,CA,Butte County,95978
"Stockton, California",37.672196,-121.298794,Stockton,CA,San Joaquin County,95201
"Stones Landing, California",0,0,,,,
"Stonyford, California",39.28207,-122.431045,Stonyford,CA,Colusa County,95979
"Stratford, California",36.189441,-119.851865,Stratford,CA,Kings County,93266
"Strathmore, California",36.137375,-119.039111,Strathmore,CA,Tulare County,93267
"Strawberry (Marin County), California",38.184096,-120.021342,Strawberry,CA,Tuolumne County,95375
"Strawberry (Tuolumne County), California",38.201132,-120.004469,Strawberry,CA,Tuolumne County,95375
"Sugarloaf Saw Mill, California",34.237229,-116.827695,Sugarloaf,CA,San Bernardino County,92386
"Sugarloaf Village, California",34.237229,-116.827695,Sugarloaf,CA,San Bernardino County,92386
"Suisun City, California",38.195385,-121.994935,Suisun City,CA,Solano County,94585
"Sultana, California",36.54551,-119.34012,Sultana,CA,Tulare County,93666
"Summerland, California",34.42138,-119.59652,Summerland,CA,Santa Barbara County,93067
"Sunnyside, California",36.739193,-119.753932,Sunnyside,CA,Fresno County,93702
"Sunnyside-Tahoe City, California",39.132327,-120.154927,Tahoe City,CA,Placer County,96145
"Sunny Slopes, California",34.011958,-117.433381,Sunnyslope,CA,Riverside County,92509
"Sunnyvale, California",37.371647,-122.023153,Sunnyvale,CA,Santa Clara County,94086
"Sunol, California",37.585883,-121.883018,Sunol,CA,Alameda County,94586
"Sun Village, California",38.18735,-122.224074,Vallejo,CA,Napa County,94589
"Susanville, California",40.446063,-120.664132,Susanville,CA,Lassen County,96127
"Sutter, California",39.172636,-121.80251,Sutter,CA,Sutter County,95982
"Sutter Creek, California",38.436584,-120.742839,Sutter Creek,CA,Amador County,95685
"Swall Meadows, California",36.354966,-121.21159,Metz,CA,Monterey County,93960
"Taft, California",35.14247,-119.45651,Taft,CA,Kern County,93268
"Taft Heights, California",35.14247,-119.45651,Taft,CA,Kern County,93268
"Fowler, California",36.623402,-119.691869,Fowler,CA,Fresno County,93625
"Franklin (Merced County), California",37.330076,-120.54101,Merced,CA,Merced County,95348
"Franklin (Sacramento County), California",38.513544,-121.468142,Sacramento,CA,Sacramento County,95824
"Frazier Park, California",34.842272,-119.20368,Frazier Park,CA,Kern County,93222
"Freedom, California",36.937042,-121.780262,Freedom,CA,Santa Cruz County,95019
"Freeport, California",35.187133,-117.885359,California City,CA,Kern County,93504
"Fremont, California",37.565285,-121.982721,Fremont,CA,Alameda County,94536
"French Camp, California",37.883775,-121.290405,French Camp,CA,San Joaquin County,95231
"French Gulch, California",40.689232,-122.58753,French Gulch,CA,Shasta County,96033
"French Valley, California",39.056598,-123.525375,Philo,CA,Mendocino County,95466
"Fresno, California",36.8411,-119.801015,Fresno,CA,Fresno County,93650
"Friant, California",36.98404,-119.71159,Friant,CA,Fresno County,93626
"Fruitdale, California",35.187133,-117.885359,California City,CA,Kern County,93504
"Fruitridge Pocket, California",0,0,,,,
"Fuller Acres, California",36.623402,-119.691869,Fowler,CA,Fresno County,93625
"Fullerton, California",33.879768,-117.896341,Fullerton,CA,Orange County,92831
"Fulton, California",38.49031,-122.776963,Fulton,CA,Sonoma County,95439
"Furnace Creek, California",0,0,,,,
"Galt, California",38.289817,-121.313883,Galt,CA,Sacramento County,95632
"Garberville, California",40.080405,-123.783948,Garberville,CA,Humboldt County,95542
"Gardena, California",33.888315,-118.295256,Gardena,CA,Los Angeles County,90247
"Garden Acres, California",33.787165,-117.931889,Garden Grove,CA,Orange County,92840
"Garden Farms, California",35.418029,-120.606279,Garden Farms,CA,San Luis Obispo County,93422
"Garden Grove, California",33.787165,-117.931889,Garden Grove,CA,Orange County,92840
"Garey, California",34.831792,-120.433509,Garey,CA,Santa Barbara County,93455
"Garnet, California",35.187133,-117.885359,California City,CA,Kern County,93504
"Gasquet, California",41.912328,-123.810269,Gasquet,CA,Del Norte County,95543
"Gazelle, California",41.51376,-122.52154,Gazelle,CA,Siskiyou County,96034
"Georgetown, California",38.924378,-120.703303,Georgetown,CA,El Dorado County,95634
"Gerber, California",40.049209,-122.209437,Gerber,CA,Tehama County,96035
"Geyserville, California",38.707323,-123.006531,Geyserville,CA,Sonoma County,95441
"Gilroy, California",37.023347,-121.493849,Gilroy,CA,Santa Clara County,95020
"Glendale, California",34.17051,-118.289463,Glendale,CA,Los Angeles County,91201
"Glendora, California",34.119363,-117.855059,Glendora,CA,Los Angeles County,91740
"Glen Ellen, California",38.383854,-122.557253,Glen Ellen,CA,Sonoma County,95442
"Glennville, California",35.73296,-118.709978,Glennville,CA,Kern County,93226
"Golden Hills, California",35.142465,-118.490364,Golden Hills,CA,Kern County,93561
"Gold Mountain, California",34.07001,-117.13448,Mentone,CA,San Bernardino County,92359
"Gold River, California",34.435829,-119.827639,Goleta,CA,Santa Barbara County,93116
"Goleta, California",34.435829,-119.827639,Goleta,CA,Santa Barbara County,93116
"Gonzales, California",36.502102,-121.408607,Gonzales,CA,Monterey County,93926
"Good Hope, California",0,0,,,,
"Goodmanville, California",35.187133,-117.885359,California City,CA,Kern County,93504
"Goodyears Bar, California",39.49253,-120.898248,Goodyears Bar,CA,Sierra County,95944
"Goshen, California",36.357151,-119.425371,Goshen,CA,Tulare County,93227
"Graeagle, California",39.766287,-120.618552,Graeagle,CA,Plumas County,96103
"Grand Terrace, California",34.031011,-117.312929,Grand Terrace,CA,San Bernardino County,92313
"Grangeville, California",35.187133,-117.885359,California City,CA,Kern County,93504
"Granite Bay, California",38.756614,-121.183436,Granite Bay,CA,Placer County,95746
"Granite Hills, California",0,0,,,,
"Graniteville, California",39.440732,-120.739662,Graniteville,CA,Nevada County,95959
"Grass Valley, California",39.196288,-120.95855,Grass Valley,CA,Nevada County,95945
"Graton, California",38.434926,-122.868154,Graton,CA,Sonoma County,95444
"Grayson, California",33.813317,-118.261154,Carson,CA,Los Angeles County,90745
"Greeley Hill, California",0,0,,,,
"Greenacres, California",35.383293,-119.109827,Greenacres,CA,Kern County,93312
"Taft Mosswood, California",35.14247,-119.45651,Taft,CA,Kern County,93268
"Tahoe Vista, California",39.24823,-120.05356,Tahoe Vista,CA,Placer County,96148
"Tahoma, California",38.998714,-120.107955,Tahoma,CA,El Dorado County,96142
"Talmage, California",39.127247,-123.164533,Talmage,CA,Mendocino County,95481
"Tamalpais-Homestead Valley, California",37.898931,-122.554768,Mill Valley,CA,Marin County,94941
"Tancred, California",35.187133,-117.885359,California City,CA,Kern County,93504
"Tara Hills, California",37.993534,-122.316359,Tara Hills,CA,Contra Costa County,94806
"Tarina, California",35.74837,-117.384948,Trona,CA,San Bernardino County,93562
"Tarpey Village, California",36.787728,-119.700696,Tarpey,CA,Fresno County,93727
"Taylorsville, California",40.05837,-120.83886,Taylorsville,CA,Plumas County,95983
"Tecopa, California",35.83515,-116.20753,Tecopa,CA,Inyo County,92389
"Tehachapi, California",35.118772,-118.493811,Tehachapi,CA,Kern County,93561
"Tehama, California",40.0271,-122.12332,Tehama,CA,Tehama County,96090
"Temecula, California",33.752886,-116.055617,Temecula,CA,Riverside County,92589
"Temelec, California",35.187133,-117.885359,California City,CA,Kern County,93504
"Temescal Valley, California",39.056598,-123.525375,Philo,CA,Mendocino County,95466
"Temple City, California",34.10723,-118.05785,Temple City,CA,Los Angeles County,91780
"Templeton, California",35.517781,-120.65385,Templeton,CA,San Luis Obispo County,93465
"Tennant, California",41.583765,-121.913337,Tennant,CA,Siskiyou County,96066
"Terminous, California",38.114388,-121.144658,Terminous,CA,San Joaquin County,95240
"Terra Bella, California",35.95961,-119.03889,Terra Bella,CA,Tulare County,93270
"Teviston, California",35.187133,-117.885359,California City,CA,Kern County,93504
"Thermal, California",33.5578,-116.157152,Thermal,CA,Riverside County,92274
"Thermalito, California",39.511275,-121.586915,Thermalito,CA,Butte County,95965
"Thornton, California",38.22603,-121.42467,Thornton,CA,San Joaquin County,95686
"Thousand Oaks, California",34.212798,-118.882175,Thousand Oaks,CA,Ventura County,91360
"Thousand Palms, California",33.843837,-116.393413,Thousand Palms,CA,Riverside County,92276
"Three Rivers, California",36.435485,-118.82759,Three Rivers,CA,Tulare County,93271
"Three Rocks, California",36.502451,-120.391548,Three Rocks,CA,Fresno County,93608
"Tiburon town, California",37.873538,-122.456639,Tiburon,CA,Marin County,94920
"Timber Cove, California",0,0,,,,
"Tipton, California",36.05835,-119.313,Tipton,CA,Tulare County,93272
"Tobin, California",39.937941,-121.308577,Tobin,CA,Plumas County,95980
"Tomales, California",38.242733,-122.91446,Tomales,CA,Marin County,94971
"Tonyville, California",36.248561,-119.09066,Tonyville,CA,Tulare County,93247
"Tooleville, California",36.28745,-119.117606,Toolville,CA,Tulare County,93221
"Topanga, California",34.08927,-118.60436,Topanga,CA,Los Angeles County,90290
"Topaz, California",38.617086,-119.506094,Topaz,CA,Mono County,96133
"Toro Canyon, California",37.833901,-122.165034,Canyon,CA,Contra Costa County,94516
"Torrance, California",33.835665,-118.303805,Torrance,CA,Los Angeles County,90501
"Trabuco Canyon, California",33.680226,-117.526145,Trabuco Canyon,CA,Orange County,92678
"Tracy, California",37.737191,-121.433384,Tracy,CA,San Joaquin County,95376
"Tranquillity, California",36.632595,-120.282776,Tranquillity,CA,Fresno County,93668
"Traver, California",36.45267,-119.48238,Traver,CA,Tulare County,93673
"Tres Pinos, California",36.761702,-121.274795,Tres Pinos,CA,San Benito County,95075
"Trinidad, California",41.05929,-124.14312,Trinidad,CA,Humboldt County,95570
"Trinity Center, California",41.050081,-122.686387,Trinity Center,CA,Trinity County,96091
"Trinity Village, California",40.647858,-123.114666,,CA,Trinity County,
"Trona, California",35.74837,-117.384948,Trona,CA,San Bernardino County,93562
"Trowbridge, California",38.91073,-121.525237,Trowbridge,CA,Sutter County,95659
"Truckee town, California",39.3781,-120.186383,Truckee,CA,Nevada County,96160
"Tulare, California",36.133527,-119.299856,Tulare,CA,Tulare County,93274
"Tulelake, California",41.93519,-121.58865,Tule Lake,CA,Siskiyou County,96134
"Tuolumne City, California",37.921694,-120.267887,Tuolumne,CA,Tuolumne County,95379
"Tupman, California",35.29874,-119.35767,Tupman,CA,Kern County,93276
"Turlock, California",37.474396,-120.875918,Turlock,CA,Stanislaus County,95380
"Greenfield, California",36.3208,-121.24381,Greenfield,CA,Monterey County,93927
"Greenfield, California",36.3208,-121.24381,Greenfield,CA,Monterey County,93927
"Greenhorn, California",35.187133,-117.885359,California City,CA,Kern County,93504
"Green Valley (Los Angeles County), California",34.278828,-118.400121,Pacoima,CA,Los Angeles County,91331
"Green Valley (Solano County), California",34.440891,-118.501748,Green Valley,CA,Los Angeles County,91350
"Greenview, California",41.540332,-122.936575,Greenview,CA,Siskiyou County,96037
"Greenville, California",40.124832,-120.87884,Greenville,CA,Plumas County,95947
"Grenada, California",41.64058,-122.52601,Grenada,CA,Siskiyou County,96038
"Gridley, California",39.355492,-121.724685,Gridley,CA,Butte County,95948
"Grimes, California",39.065895,-121.908208,Grimes,CA,Colusa County,95950
"Grizzly Flats, California",38.63765,-120.553399,Grizzly Flats,CA,El Dorado County,95636
"Groveland, California",37.83826,-120.23269,Groveland,CA,Tuolumne County,95321
"Grover Beach, California",35.120888,-120.619664,Grover Beach,CA,San Luis Obispo County,93433
"Guadalupe, California",34.938796,-120.57318,Guadalupe,CA,Santa Barbara County,93434
"Guerneville, California",38.495554,-122.979355,Guerneville,CA,Sonoma County,95446
"Guinda, California",38.850382,-122.214722,Guinda,CA,Yolo County,95637
"Gustine, California",37.150438,-120.987196,Gustine,CA,Merced County,95322
"Hacienda Heights, California",33.976114,-117.981631,Hacienda Heights,CA,Los Angeles County,91745
"Half Moon Bay, California",37.389057,-122.415566,Half Moon Bay,CA,San Mateo County,94019
"Hamilton Branch, California",0,0,,,,
"Hamilton City, California",39.728209,-122.053823,Hamilton City,CA,Glenn County,95951
"Hanford, California",36.220468,-119.71776,Hanford,CA,Kings County,93230
"Happy Camp, California",41.666514,-123.421603,Happy Camp,CA,Siskiyou County,96039
"Happy Valley, California",41.05041,-123.67422,Hoopa,CA,Humboldt County,95546
"Harbison Canyon, California",32.79551,-116.969722,Harbison Canyon,CA,San Diego County,92020
"Hardwick, California",36.401339,-119.718744,Hardwick,CA,Kings County,93230
"Harmony Grove, California",35.491888,-120.976259,Harmony,CA,San Luis Obispo County,93435
"Hartland, California",36.696759,-119.024051,Hartland,CA,Fresno County,93641
"Hartley, California",0,0,,,,
"Hasley Canyon, California",37.833901,-122.165034,Canyon,CA,Contra Costa County,94516
"Hat Creek, California",40.808623,-121.499992,Hat Creek,CA,Shasta County,96040
"Hawaiian Gardens, California",33.830967,-118.072796,Hawaiian Gardens,CA,Los Angeles County,90716
"Hawthorne, California",33.914775,-118.348083,Hawthorne,CA,Los Angeles County,90250
"Hayfork, California",40.500622,-123.167247,Hayfork,CA,Trinity County,96041
"Hayward, California",37.673946,-122.08482,Hayward,CA,Alameda County,94541
"Healdsburg, California",38.61047,-122.86916,Healdsburg,CA,Sonoma County,95448
"Heber, California",32.72181,-115.438271,Heber,CA,Imperial County,92249
"Hemet, California",33.667301,-116.963506,Hemet,CA,Riverside County,92543
"Herald, California",38.320561,-121.154808,Herald,CA,Sacramento County,95638
"Hercules, California",38.008343,-122.262101,Hercules,CA,Contra Costa County,94547
"Herlong, California",40.14351,-120.13465,Herlong,CA,Lassen County,96113
"Green Acres, California",35.383293,-119.109827,Greenacres,CA,Kern County,93312
"Hermosa Beach, California",33.86224,-118.39952,Hermosa Beach,CA,Los Angeles County,90254
"Hesperia, California",34.839964,-115.967051,Hesperia,CA,San Bernardino County,92340
"Hickman, California",37.599514,-120.659136,Hickman,CA,Stanislaus County,95323
"Hidden Hills, California",34.160283,-118.65231,Hidden Hills,CA,Los Angeles County,91302
"Hidden Meadows, California",33.102005,-117.08042,Hidden Meadows,CA,San Diego County,92025
"Hidden Valley Lake, California",34.137015,-118.82193,Hidden Valley,CA,Los Angeles County,91361
"Highgrove, California",34.015848,-117.333377,Highgrove,CA,Riverside County,92507
"Highland, California",34.12834,-117.20865,Highland,CA,San Bernardino County,92346
"Highlands, California",34.12834,-117.20865,Highland,CA,San Bernardino County,92346
"Hillcrest, California",35.187133,-117.885359,California City,CA,Kern County,93504
"Hillsborough town, California",37.574103,-122.379416,Hillsborough,CA,San Mateo County,94010
"Hilmar-Irwin, California",37.399608,-120.885973,Hilmar,CA,Merced County,95324
"Hiouchi, California",35.187133,-117.885359,California City,CA,Kern County,93504
"Hollister, California",36.828078,-121.3924,Hollister,CA,San Benito County,95023
"Tustin, California",33.73401,-117.819157,Tustin,CA,Orange County,92780
"Tuttle, California",37.296053,-120.378797,Tuttle,CA,Merced County,95340
"Tuttletown, California",37.991591,-120.459641,Tuttletown,CA,Tuolumne County,95370
"Twain, California",40.03504,-121.0418,Twain,CA,Plumas County,95984
"Twain Harte, California",38.03866,-120.23373,Twain Harte,CA,Tuolumne County,95383
"Twentynine Palms, California",34.141356,-115.621176,Twentynine Palms,CA,San Bernardino County,92277
"Twin Lakes (Mono County), California",36.967451,-121.998017,Twin Lakes,CA,Santa Cruz County,95062
"Twin Lakes (Santa Cruz County), California",36.98025,-121.74696,Watsonville,CA,Santa Cruz County,95076
"Ukiah, California",39.15017,-123.20778,Ukiah,CA,Mendocino County,95482
"Union City, California",37.59577,-122.01913,Union City,CA,Alameda County,94587
"University of California-Davis, California",38.544413,-121.746012,Davis,CA,Yolo County,95616
"University of California-Merced, California",37.33691,-120.480812,Merced,CA,Merced County,95348
"University of California-Santa Barbara, California",34.445103,-119.803343,Santa Barbara,CA,Santa Barbara County,93111
"Upland, California",34.141146,-117.655583,Upland,CA,San Bernardino County,91784
"Upper Lake, California",39.14551,-122.89907,Upper Lake,CA,Lake County,95485
"Vacaville, California",38.333133,-121.920151,Vacaville,CA,Solano County,95687
"Valinda, California",34.045288,-117.943675,Valinda,CA,Los Angeles County,91744
"Vallecito, California",38.085205,-120.471841,Vallecito,CA,Calaveras County,95251
"Vallejo, California",38.18735,-122.224074,Vallejo,CA,Napa County,94589
"Valle Vista, California",33.747798,-116.893356,Valle Vista,CA,Riverside County,92343
"Valley Acres, California",35.206076,-119.406783,Valley Acres,CA,Kern County,93268
"Valley Center, California",33.22998,-117.01516,Valley Center,CA,San Diego County,92082
"Valley Ford, California",38.292103,-122.971069,Valley Ford,CA,Marin County,94972
"Valley Home, California",37.828816,-120.912157,Valley Home,CA,Stanislaus County,95384
"Valley Ranch, California",39.056598,-123.525375,Philo,CA,Mendocino County,95466
"Valley Springs, California",38.18371,-120.81502,Valley Springs,CA,Calaveras County,95252
"Valley Wells, California",35.828286,-117.331723,Valley Wells,CA,Inyo County,92366
"Val Verde, California",34.445757,-118.657271,Val Verde,CA,Los Angeles County,91384
"Vandenberg AFB, California",34.748305,-120.51817,Vandenberg AFB,CA,Santa Barbara County,93437
"Vandenberg Village, California",34.708316,-120.467664,Vandenberg Village,CA,Santa Barbara County,93436
"Verdi, California",35.187133,-117.885359,California City,CA,Kern County,93504
"Vernon, California",34.003903,-118.230073,Vernon,CA,Los Angeles County,90058
"Victor, California",38.114669,-121.203656,Victor,CA,San Joaquin County,95253
"Victorville, California",34.480247,-117.408186,Victorville,CA,San Bernardino County,92392
"View Park-Windsor Hills, California",33.881059,-118.109539,Bellflower,CA,Los Angeles County,90706
"Villa Park, California",33.81766,-117.810014,Villa Park,CA,Orange County,92861
"Vina, California",39.927203,-122.025047,Vina,CA,Tehama County,96092
"Vincent, California",34.500549,-118.116462,Vincent,CA,Los Angeles County,93550
"Vine Hill, California",38.008533,-122.096075,Vine Hill,CA,Contra Costa County,94553
"Vineyard, California",35.187133,-117.885359,California City,CA,Kern County,93504
"Virginia Lakes, California",0,0,,,,
"Visalia, California",36.303793,-119.375646,Visalia,CA,Tulare County,93277
"Vista, California",33.19784,-117.248203,Vista,CA,San Diego County,92083
"Vista Santa Rosa, California",33.19784,-117.248203,Vista,CA,San Diego County,92083
"Volcano, California",38.44297,-120.63076,Volcano,CA,Amador County,95689
"Volta, California",37.097444,-120.92603,Volta,CA,Merced County,93635
"Walker, California",38.514911,-119.476833,Walker,CA,Mono County,96107
"Wallace, California",38.19783,-120.95854,Wallace,CA,Calaveras County,95254
"Walnut, California",34.018354,-117.85492,Walnut,CA,Los Angeles County,91789
"Walnut Creek, California",37.873343,-122.070625,Walnut Creek,CA,Contra Costa County,94595
"Walnut Grove, California",38.2559,-121.50835,Walnut Grove,CA,Sacramento County,95690
"Walnut Park, California",34.018354,-117.85492,Walnut,CA,Los Angeles County,91789
"Warm Springs, California",0,0,,,,
"Warner Valley, California",39.056598,-123.525375,Philo,CA,Mendocino County,95466
"Wasco, California",35.59412,-119.34095,Wasco,CA,Kern County,93280